{"type":"FeatureCollection","features":[{"type":"Feature","properties":{"osm_id":162054063,"name":"Caloosahatchee River"},"geometry":{"type":"LineString","coordinates":[[-81.815168,26.6950333],[-81.8184515,26.6945534],[-81.8216208,26.6911709],[-81.8543794,26.666084],[-81.8585998,26.6623251],[-81.8629058,26.6568713],[-81.8668609,26.6526031],[-81.8714165,26.6481367]]}},{"type":"Feature","properties":{"osm_id":162064538,"name":"Caloosahatchee River"},"geometry":{"type":"LineString","coordinates":[[-82.0163449,26.4876138],[-82.0133269,26.4790973]]}},{"type":"Feature","properties":{"osm_id":164124997,"name":"Caloosahatchee River"},"geometry":{"type":"LineString","coordinates":[[-81.8714165,26.6481367],[-81.8719982,26.6475663],[-81.8810855,26.6427863],[-81.8885722,26.6363095],[-81.8910455,26.6321683],[-81.8929277,26.6290167],[-81.8998811,26.6040417],[-81.900639,26.6013191],[-81.9049714,26.5870005],[-81.9168339,26.5758294],[-81.9291587,26.5611889],[-81.935282,26.550556],[-81.939133,26.5417169],[-81.9493563,26.5346994],[-81.955466,26.532733],[-81.976575,26.5292923],[-81.9961963,26.5274943],[-82.0063132,26.5241565],[-82.0080393,26.5230371],[-82.0107267,26.5205241],[-82.0129447,26.5188461],[-82.0137513,26.517944],[-82.0168485,26.5119581],[-82.0177126,26.5102879]]}},{"type":"Feature","properties":{"osm_id":164124998,"name":"Caloosahatchee River"},"geometry":{"type":"LineString","coordinates":[[-82.0177126,26.5102879],[-82.0138718,26.5013649],[-82.0163449,26.4876138]]}},{"type":"Feature","properties":{"osm_id":315814847,"name":"Caloosahatchee River"},"geometry":{"type":"LineString","coordinates":[[-81.6985054,26.7228017],[-81.7073141,26.7248335],[-81.7102191,26.7255036],[-81.7346517,26.7210053],[-81.7461043,26.7164514],[-81.7604352,26.7162669],[-81.7629154,26.7160146],[-81.7647431,26.7158723],[-81.766236,26.715402],[-81.7673198,26.7144159],[-81.7700072,26.7102347],[-81.7727951,26.7053094],[-81.7736834,26.7042235],[-81.7751619,26.7032412]]}},{"type":"Feature","properties":{"osm_id":913943491,"name":"Caloosahatchee River"},"geometry":{"type":"LineString","coordinates":[[-81.7751619,26.7032412],[-81.7850082,26.6994484],[-81.7873831,26.6986624],[-81.7893727,26.6980634],[-81.7910715,26.6979807],[-81.7984069,26.6974829],[-81.8039127,26.6966782],[-81.815168,26.6950333]]}}]}