{"type":"FeatureCollection","features":[{"type":"Feature","id":3,"geometry":{"type":"MultiPolygon","coordinates":[[[[-81.93143818756752,26.769975439380136],[-81.93989954194623,26.769945895661447],[-81.93994728060925,26.766276291227193],[-81.93999501193714,26.762606685772163],[-81.94004245382075,26.758959275479096],[-81.94119797743834,26.75896432476838],[-81.94211162404999,26.758968309334556],[-81.9421653119565,26.75529024811807],[-81.94418771376503,26.755312422853137],[-81.94621011440427,26.755334566030676],[-81.948228819043,26.75535664200332],[-81.95148060468615,26.75539213996881],[-81.95636718894569,26.755445345937716],[-81.95637630054702,26.755198717986826],[-81.95703840269458,26.74116266004627],[-81.95710500392332,26.73376467846933],[-81.95715060211636,26.73030391117516],[-81.95720783854898,26.725331538869835],[-81.95735680818967,26.719483332539085],[-81.95734603668225,26.718825417981417],[-81.95732538981642,26.71459225903117],[-81.95743711542657,26.711815937641553],[-81.95779292909157,26.711752137934937],[-81.96522180586477,26.711699376419773],[-81.97366240870039,26.711636680282552],[-81.97366104450394,26.71756517110996],[-81.97364898548736,26.717941498299428],[-81.98067776688937,26.71462017893467],[-81.98404233683438,26.713040012597844],[-81.98700766544138,26.711672840308456],[-81.98987657767647,26.711701726605177],[-81.98984922196361,26.71537568408645],[-81.99394761828944,26.715390165401566],[-81.99803599725593,26.71540979030979],[-81.99802183862423,26.719102643332388],[-82.00417142570782,26.719134510399815],[-82.00416967487936,26.71543863719358],[-82.00212513141061,26.7154290591442],[-82.00213130597508,26.711734206492057],[-82.00621398270384,26.711749344721444],[-82.00621982260536,26.726538428737104],[-82.01426012062147,26.72649492771912],[-82.0204157713175,26.72647017478565],[-82.02287279922943,26.72645424025595],[-82.022809042423,26.72995575496746],[-82.02261282387965,26.741296921356245],[-82.03080423309952,26.74111381477436],[-82.03083037463405,26.740734954569415],[-82.03082506719629,26.739826643108824],[-82.0310313986413,26.726408667613523],[-82.038489839661,26.72646851308007],[-82.03856430352778,26.726470442445958],[-82.03937849270923,26.726470171864758],[-82.03937970543335,26.726579717550575],[-82.03937898165321,26.72670506354871],[-82.03937708671086,26.727048950421374],[-82.03937645415294,26.727158993935547],[-82.03937582159428,26.72726903835058],[-82.03937518802906,26.727379081861606],[-82.03937465095763,26.727489125344157],[-82.03937401739036,26.72759916885176],[-82.03937338482747,26.72770921325995],[-82.03937275125807,26.727819256764153],[-82.03937211768756,26.72792930026664],[-82.03937158061133,26.728039343740623],[-82.03937094804394,26.728149387239423],[-82.03937031447062,26.72825943163936],[-82.03936968190108,26.728369475134716],[-82.03936904832531,26.728479518628664],[-82.03936851124426,26.72858956209413],[-82.03936787867191,26.728699606486952],[-82.039367245093,26.728809649975748],[-82.03936661151305,26.728919693462863],[-82.03936597893717,26.729029736947986],[-82.03936544185129,26.72913978040489],[-82.03936480826852,26.729249824789438],[-82.03936417568949,26.72935986826945],[-82.03936354210423,26.729469911747998],[-82.03936291425669,26.72959371063578],[-82.03936164808619,26.72981379848624],[-82.03936092373827,26.729937597394752],[-82.03936038664447,26.730047640837594],[-82.03935975305266,26.730157684305464],[-82.03935912046497,26.730267727771345],[-82.0393590266894,26.730275637158783],[-82.03935848687131,26.73037777213838],[-82.0393578532763,26.730487815601148],[-82.03935731617767,26.730597859035406],[-82.03935668358545,26.730707901591888],[-82.0393560499873,26.730817945049512],[-82.03935541739355,26.730927989407732],[-82.03935478379326,26.731038032861917],[-82.03935424668981,26.73114807628766],[-82.03935361409263,26.731258119738175],[-82.03935298048953,26.73136816408984],[-82.03935234688501,26.731478207537204],[-82.03935171428459,26.731588250982607],[-82.03935117717634,26.731698294399788],[-82.03935054356901,26.731808338744614],[-82.03934990996031,26.731918382185135],[-82.0393492773557,26.732028425623703],[-82.03934864475004,26.732138469060516],[-82.03934810663206,26.732248513372046],[-82.03934747402435,26.732358556805462],[-82.03934684041036,26.73246860023745],[-82.03934620780049,26.732578643667445],[-82.0393455789165,26.732702442501207],[-82.03934494630474,26.732812486830152],[-82.03934431534802,26.732930267218965],[-82.03934223396665,26.73328790924653],[-82.03934015949372,26.733665668082114],[-82.03933510393519,26.734573527934987],[-82.03929952689488,26.740951409779544],[-82.03938225363831,26.741169702204562],[-82.03934163609608,26.741866710068592],[-82.03929127615461,26.743939370171418],[-82.03919006668161,26.746672356110366],[-82.03911926516237,26.748726678093714],[-82.03898772008628,26.752395112241636],[-82.03892704919923,26.754220155562734],[-82.03892533053467,26.756467589127897],[-82.03891176822269,26.75875138125159],[-82.05464304093807,26.758421582828284],[-82.05535986093732,26.75842577610087],[-82.05715109506039,26.758435902576913],[-82.06072561713728,26.758455918637992],[-82.06326412602003,26.75847028957473],[-82.06438218011755,26.756028032776598],[-82.06519120445812,26.752989439626283],[-82.06527152616466,26.75227480878264],[-82.06547046880713,26.750503364284107],[-82.06571805603193,26.74721639737209],[-82.0662791661901,26.7469951918561],[-82.0678042094182,26.742271383476048],[-82.06816873520121,26.741282712824],[-82.06817351422303,26.741269126631895],[-82.07162556646455,26.73148423550016],[-82.07194374096919,26.73058584653734],[-82.07218040919551,26.730262817250185],[-82.07512593280352,26.7262417856883],[-82.07518332621227,26.726163349426702],[-82.07551694019654,26.725660928128562],[-82.07977130815333,26.71925441829436],[-82.08032388314085,26.718422419519793],[-82.08288143946892,26.712058710534752],[-82.08305210507173,26.711633911553683],[-82.08372673539954,26.708247779685884],[-82.08390299347464,26.707362855523595],[-82.08420553500207,26.699944689395586],[-82.08508183983439,26.697739679487874],[-82.0852794155156,26.69724247229452],[-82.08639308188783,26.694439634583482],[-82.08564399274104,26.689354160939182],[-82.0876286534783,26.686236643056173],[-82.0892688958255,26.683659904066594],[-82.08945234019646,26.682889480076607],[-82.08974147669917,26.681675373359695],[-82.09007202932742,26.677490388666143],[-82.09106313202422,26.675230069041497],[-82.09157294866041,26.674067572199586],[-82.09153069082863,26.669279809713643],[-82.09126597454684,26.668270150493587],[-82.09058001783816,26.665654453664605],[-82.08954182942615,26.66422659448955],[-82.08820749196748,26.662391574404015],[-82.08651927578707,26.6600698092185],[-82.08527664237322,26.659196564437742],[-82.08066527947203,26.65595602558085],[-82.08133169940092,26.65322705707721],[-82.0813451508726,26.653172026260872],[-82.08105566144553,26.65294900685815],[-82.07727602617538,26.65003612404098],[-82.07546709212633,26.649188715245423],[-82.07190414120245,26.647519593899247],[-82.07038947055868,26.6468098723197],[-82.07051352948048,26.643451897951138],[-82.06867008540492,26.642229235388378],[-82.06658725244193,26.640483275550274],[-82.06555834855658,26.640633017058224],[-82.0639822357963,26.64063490296208],[-82.06361677445581,26.638693479859793],[-82.06115777080157,26.638694558707616],[-82.0588897229226,26.6397804039131],[-82.05839561463219,26.64003180595234],[-82.05725743917677,26.640414528721216],[-82.05656475910705,26.640545864895085],[-82.05649196000846,26.640793451902805],[-82.05630381702387,26.641146224527038],[-82.05594373288187,26.641058561094223],[-82.0559412811467,26.641058556643248],[-82.05593975044162,26.64105854821948],[-82.0559382197339,26.641058534380115],[-82.05593668902445,26.64105851693035],[-82.05593515831276,26.64105849496758],[-82.0559336286024,26.641058466686236],[-82.0559320978859,26.641058434794864],[-82.05593056817203,26.641058399292707],[-82.05592903745068,26.641058357472737],[-82.05592750773198,26.641058312041977],[-82.05592597801063,26.64105826119561],[-82.05592444828754,26.64105820673883],[-82.05592291956621,26.641058146866076],[-82.05592138983829,26.6410580824807],[-82.05591986111256,26.641058013581937],[-82.05591833338903,26.64105794016976],[-82.0559168046589,26.641057862244995],[-82.05591527693099,26.641057779806815],[-82.05591374919999,26.641057691050463],[-82.05591222247165,26.64105759868329],[-82.05591069473714,26.64105750270612],[-82.05590916900834,26.641057400409956],[-82.05590764227382,26.641057295406387],[-82.05590611654112,26.641057184986803],[-82.05590459181015,26.641057069151262],[-82.05590306607259,26.641056948803097],[-82.05590154234207,26.641056824843744],[-82.05590001760407,26.64105669456657],[-82.05589849487356,26.641056561580804],[-82.0558969721404,26.641056423179453],[-82.05589544940463,26.6410562793625],[-82.05589392767149,26.64105613193475],[-82.05589240593616,26.64105597999398],[-82.05589088520304,26.641055823539826],[-82.05588936547167,26.641055661669675],[-82.05588784573813,26.641055495286537],[-82.05588632700679,26.64105532438998],[-82.05588480827325,26.641055148980428],[-82.0558832915463,26.641054969057098],[-82.05588177481674,26.641054783718175],[-82.05588025808541,26.64105459476882],[-82.05587874235628,26.641054401306086],[-82.0558772276294,26.64105420332994],[-82.05587571390426,26.641053999937828],[-82.05587420118133,26.64105379203228],[-82.05587268845663,26.641053580516378],[-82.05587117673326,26.641053362681845],[-82.05586966601298,26.64105314213912],[-82.05586815629448,26.641052916180424],[-82.0558666475782,26.6410526857083],[-82.05586513885926,26.641052449820595],[-82.05586363214738,26.6410522103217],[-82.0558621254333,26.64105196630979],[-82.05586061972144,26.641051717784514],[-82.05585911501133,26.641051463843205],[-82.05585761230827,26.64105120629072],[-82.05585610960303,26.641050944225253],[-82.0558546079,26.641050677646344],[-82.0558531071983,26.641050404748892],[-82.05585160749968,26.641050129143206],[-82.05585010880282,26.64104984812155],[-82.05584861211302,26.641049563488693],[-82.0558471154206,26.64104927344021],[-82.05584561973039,26.64104897887836],[-82.05584412604676,26.64104867980272],[-82.05584263336578,26.64104837711629],[-82.05584114168616,26.641048068111246],[-82.05583965100917,26.641047755495418],[-82.0558381613344,26.6410474383662],[-82.05583667266228,26.64104711762618],[-82.05583518599632,26.641046791469766],[-82.05583370033257,26.64104646079997],[-82.05583221466664,26.64104612561713],[-82.05583073201171,26.641045785920152],[-82.05582925035944,26.64104544261236],[-82.05582776970893,26.641045093888582],[-82.05582629006064,26.641044740651402],[-82.05582481141455,26.641044382900837],[-82.05582333477508,26.64104402063649],[-82.05582185913782,26.641043653858723],[-82.0558203855076,26.641043283469767],[-82.05581891287916,26.64104290766483],[-82.05581744225776,26.641042528248693],[-82.05581597163376,26.64104214341696],[-82.0558145040212,26.641041754973628],[-82.05581303741039,26.641041361114322],[-82.05581157180224,26.64104096364423],[-82.05581010820028,26.641040560757745],[-82.05580864560139,26.641040155163036],[-82.05580718500869,26.64103974415197],[-82.05580572541774,26.64103932772489],[-82.05580426783429,26.641038908589227],[-82.05580281225701,26.641038484037185],[-82.05580135768196,26.64103805497173],[-82.05579990511352,26.6410376213925],[-82.05579845354771,26.64103718420247],[-82.05579700398852,26.641036742498642],[-82.05579555643597,26.641036296281026],[-82.05579410988516,26.641035844647448],[-82.0557926653414,26.641035389402646],[-82.05579122280426,26.641034929644068],[-82.05578978227419,26.641034466274295],[-82.05578834274631,26.641033998391116],[-82.05578690522506,26.641033525994185],[-82.05578546970997,26.641033048180827],[-82.05578403519752,26.641032566756707],[-82.05578260369656,26.641032081720976],[-82.05578117319692,26.641031590366662],[-82.05577974470519,26.64103109720636],[-82.05577831821923,26.641030597727077],[-82.0557768937403,26.641030094636605],[-82.05577547126798,26.641029587032328],[-82.05577404979833,26.641029075817276],[-82.05577263133925,26.64102855918544],[-82.05577121388282,26.641028038942814],[-82.05576979943785,26.64102751508857],[-82.05576838599417,26.64102698491577],[-82.05576697455848,26.64102645293697],[-82.05576556613335,26.641025915541388],[-82.05576415871043,26.64102537363239],[-82.05576275429854,26.641024827209254],[-82.0557613508888,26.641024276272695],[-82.05575995049101,26.641023722627157],[-82.05575855209939,26.64102316356524],[-82.0557571547104,26.64102260089251],[-82.05575576033247,26.64102203370561],[-82.05575436796111,26.641021462004932],[-82.05575297860081,26.641020885790073],[-82.05575159024312,26.641020305964386],[-82.05575020389206,26.64101972162496],[-82.05574882055245,26.64101913367393],[-82.05574743921947,26.64101854120911],[-82.0557460598931,26.641017944230505],[-82.05574468357817,26.64101734364033],[-82.05574330826546,26.641016738536724],[-82.05574193596377,26.641016128918967],[-82.05574056566871,26.641015514787433],[-82.05573919838507,26.641014897044304],[-82.05573783310851,26.641014275689983],[-82.05573646983855,26.641013649821883],[-82.05573510857565,26.64101302034258],[-82.05573375132774,26.64101238544612],[-82.05573239508291,26.641011747841468],[-82.0557310418491,26.641011105722608],[-82.05572969062189,26.64101045909001],[-82.05572834140176,26.641009808846185],[-82.05572699519219,26.641009153185582],[-82.05572565199496,26.64100849571862],[-82.05572431080347,26.64100783193265],[-82.05572297161947,26.641007165438104],[-82.05572163544647,26.641006494429377],[-82.05572030128054,26.641005819809447],[-82.05571897012564,26.641005140675368],[-82.05571764198174,26.64100445702709],[-82.05571631584489,26.641003769767618],[-82.05571499271952,26.641003078896574],[-82.05571367160117,26.641002384414353],[-82.0557123534934,26.641001684515327],[-82.05571103739273,26.64100098100513],[-82.05570972430391,26.641000274785963],[-82.05570841422568,26.640999563150007],[-82.05570710615451,26.640998847902864],[-82.0557058020992,26.64099812904375],[-82.05570449904653,26.64099740657384],[-82.05570320000928,26.640996679589357],[-82.05570190398305,26.640995948090712],[-82.05570060895991,26.640995213883855],[-82.05569931795175,26.640994474259816],[-82.05569802995548,26.640993731926805],[-82.05569674396627,26.640992985982628],[-82.05569546098765,26.640992234621642],[-82.05569418102091,26.6409914805517],[-82.05569290406517,26.640990721967587],[-82.0556916301209,26.64098995977186],[-82.05569035818414,26.640989194867547],[-82.05568909026191,26.640988423643492],[-82.05568782434759,26.640987650613443],[-82.0556865614443,26.640986873069206],[-82.05568530155249,26.64098609191339],[-82.05568404467212,26.640985307146007],[-82.05568279080275,26.640984517864435],[-82.0556815399444,26.640983724068693],[-82.05568029209796,26.640982927563947],[-82.05567904726296,26.640982127447657],[-82.05567780543942,26.64098132371976],[-82.0556765666269,26.6409805154777],[-82.05567533082625,26.64097970452666],[-82.05567409803666,26.640978889061437],[-82.0556728682585,26.640978069984655],[-82.05567164149137,26.640977246393668],[-82.05567041874052,26.640976420093306],[-82.05566919799628,26.640975589279197],[-82.05566798026395,26.640974755756073],[-82.05566676654746,26.640973918620983],[-82.05566555483762,26.64097307697212],[-82.05566434714362,26.640972231711274],[-82.05566314246103,26.640971382838863],[-82.05566194179478,26.640970531257075],[-82.05566074313515,26.640969675161486],[-82.05565954849135,26.640968815453935],[-82.05565835685859,26.640967951232223],[-82.05565716823772,26.640967084301515],[-82.0556559826283,26.64096621375924],[-82.05565480103515,26.6409653405076],[-82.05565362245302,26.640964462741746],[-82.05565244688282,26.640963582266945],[-82.05565127432317,26.64096269637536],[-82.05565010577982,26.64096180777442],[-82.05564894125321,26.640960917366673],[-82.05564777873276,26.64096002154258],[-82.05564662022817,26.640959122106505],[-82.05564546473549,26.640958219961423],[-82.05564431225426,26.640957314204787],[-82.05564316479325,26.640956404835805],[-82.05564201933934,26.64095549185561],[-82.05564087790127,26.640954575263457],[-82.0556397394751,26.64095365596233],[-82.05563860506432,26.64095273214663],[-82.05563747366544,26.640951805621945],[-82.05563634628243,26.640950875485302],[-82.05563522191086,26.640949941737066],[-82.05563410155514,26.640949004376875],[-82.05563298421136,26.64094806430771],[-82.05563187088339,26.640947120626553],[-82.05563076056684,26.640946173333848],[-82.05562965426621,26.64094522242916],[-82.05562855097745,26.64094426881549],[-82.05562745170496,26.640943312492446],[-82.05562635544351,26.640942351655244],[-82.05562526420275,26.640941388108285],[-82.055624175973,26.640940420047116],[-82.05562309075557,26.6409394501796],[-82.05562200955401,26.640938476700093],[-82.0556209323683,26.640937499608622],[-82.05561985819405,26.64093651890559],[-82.05561878803609,26.640935535493167],[-82.05561772189398,26.640934548468785],[-82.05561665876374,26.64093355873542],[-82.05561559964896,26.640932564487514],[-82.0556145445513,26.640931569335404],[-82.05561349346864,26.640930568766137],[-82.05561244539875,26.640929567293114],[-82.05561140134384,26.640928560402898],[-82.05561036130565,26.640927551705904],[-82.05560932528284,26.64092653849436],[-82.05560829227242,26.640925523476422],[-82.05560726327784,26.640924504846538],[-82.05560623829952,26.640923483507283],[-82.05560521733707,26.640922458556048],[-82.05560420039092,26.640921430895467],[-82.0556031874606,26.640920399622875],[-82.05560217754218,26.640919365641324],[-82.05560117163962,26.640918328047835],[-82.05560017075818,26.640917288647156],[-82.05559917288777,26.640916244732306],[-82.05559817903406,26.64091519901068],[-82.05559718919622,26.640914149677098],[-82.05559620337424,26.640913096731545],[-82.05559522056458,26.640912041979615],[-82.0555942427756,26.640910984517916],[-82.05559326900249,26.640909923444248],[-82.05559229924563,26.640908859661224],[-82.05559133350421,26.64090779136363],[-82.05559037077556,26.640906722162267],[-82.05558941306717,26.640905649348543],[-82.05558845937503,26.640904573825438],[-82.05558750969878,26.64090349469036],[-82.05558656403925,26.640902413748528],[-82.05558562139072,26.64090132829253],[-82.05558468376377,26.640900241931952],[-82.05558375015222,26.640899151056825],[-82.0555828205574,26.64089805837492],[-82.05558189598283,26.64089696208064],[-82.05558097442058,26.640895863979992],[-82.05558005787903,26.6408947631696],[-82.05557914434846,26.640893657845016],[-82.05557823583948,26.640892551615874],[-82.05557733034196,26.640891441775175],[-82.05557642986511,26.6408903292247],[-82.05557553440939,26.64088921486706],[-82.05557464196512,26.640888096897857],[-82.05557375454153,26.64088697621889],[-82.05557287012985,26.64088585283096],[-82.05557199073927,26.640884727635854],[-82.05557111536454,26.64088359882878],[-82.0555702450105,26.64088246731195],[-82.05556937867276,26.64088133308578],[-82.05556851534735,26.640880197053203],[-82.05556765804701,26.640879058310468],[-82.05556680375854,26.640877916858752],[-82.05556595449077,26.640876772697318],[-82.05556510923886,26.64087562492388],[-82.05556426800366,26.64087447534372],[-82.05556343179002,26.640873324858948],[-82.0555625985874,26.640872169860035],[-82.0555617714103,26.640871013053555],[-82.0555609472451,26.64086985353809],[-82.05556012810055,26.6408686913129],[-82.0555593129723,26.64086752637832],[-82.05555850286517,26.640866359636576],[-82.05555769677477,26.640865191088068],[-82.05555689570463,26.64086401892723],[-82.05555609764636,26.64086284405738],[-82.05555530561361,26.640861667379987],[-82.05555451659318,26.640860488896223],[-82.05555373259344,26.6408593077027],[-82.05555295361437,26.640858123799433],[-82.0555521776472,26.640856937187177],[-82.05555140770554,26.64085574876736],[-82.05555064077578,26.640854557638605],[-82.05554987987152,26.640853364702256],[-82.05554912197958,26.640852169959544],[-82.05554837011229,26.640850971604102],[-82.05554762125735,26.64084977144228],[-82.0555468774235,26.640848569473288],[-82.05554613861034,26.640847364794528],[-82.05554540381388,26.640846158309024],[-82.05554467403812,26.640844949113752],[-82.05554394827911,26.640843738111716],[-82.05554322754072,26.64084252439991],[-82.05554251081865,26.64084130797876],[-82.05554179911813,26.64084009065304],[-82.05554109243829,26.640838870617547],[-82.05554038877122,26.640837649678286],[-82.05553969112876,26.640836425126277],[-82.05553899750262,26.64083519786492],[-82.05553830889845,26.64083397060159],[-82.05553762431013,26.640832739726296],[-82.05553694474294,26.640831507043846],[-82.0555362701964,26.64083027165162],[-82.05553559966704,26.64082903535526],[-82.05553493415835,26.640827796349104],[-82.0555342736712,26.6408265564384],[-82.05553361619596,26.640825313818752],[-82.05553296474622,26.64082406939153],[-82.05553231831716,26.640822822254535],[-82.05553167590524,26.64082157421341],[-82.05553103851402,26.640820323462513],[-82.0555304051395,26.64081907090485],[-82.05552977678612,26.640817816540004],[-82.05552915345383,26.640816560368034],[-82.05552853514268,26.640815302388887],[-82.0555279208478,26.64081404170036],[-82.05552731157447,26.64081278010731],[-82.05552670732182,26.640811515804486],[-82.05552610809114,26.6408102514997],[-82.05552551287633,26.640808983582954],[-82.0555249226826,26.640807713859058],[-82.05552433650605,26.640806443230986],[-82.055523756355,26.640805170795353],[-82.05552318022067,26.640803896552985],[-82.05552260910746,26.640802620503425],[-82.05552204301493,26.640801341744112],[-82.05552148093996,26.640800062983228],[-82.05552092488966,26.640798780609614],[-82.05552037285648,26.64079749733184],[-82.0555198258449,26.64079621314951],[-82.05551928385438,26.64079492715998],[-82.0555187458806,26.640793639363746],[-82.05551821393232,26.64079234975991],[-82.05551768600075,26.640791058349325],[-82.05551716309031,26.640789765131572],[-82.05551664520098,26.640788470106678],[-82.05551613233317,26.64078717417723],[-82.05551562348253,26.64078587734359],[-82.05551512065699,26.640784577799835],[-82.05551462184854,26.640783277351886],[-82.05551412806123,26.6407819750968],[-82.05551364029988,26.64078067193675],[-82.0555131565548,26.640779366067328],[-82.0555126768273,26.64077806019636],[-82.05551220312529,26.64077675251783],[-82.0555117344444,26.64077544303215],[-82.05551127078465,26.640774131739303],[-82.05551081114201,26.640772819542306],[-82.05551035652094,26.64077150644071],[-82.05550990792536,26.640770191531615],[-82.0555094633465,26.64076887481573],[-82.05550902378917,26.640767557195293],[-82.05550858925298,26.640766237767693],[-82.05550815973831,26.64076491743553],[-82.0555077352452,26.640763596198816],[-82.0555073157732,26.640762273154934],[-82.05550690132317,26.640760950109104],[-82.05550649189338,26.64075962345093],[-82.05550608748601,26.640758297693388],[-82.05550568709491,26.64075696922646],[-82.05550529273019,26.640755640757213],[-82.05550490338612,26.64075430957819],[-82.05550451906403,26.640752978397213],[-82.05550413875912,26.640751646312065],[-82.0555037644797,26.640750312419364],[-82.0555033952214,26.640748976719507],[-82.05550302998063,26.64074764101811],[-82.0555026707654,26.64074630350913],[-82.05550231556776,26.640744965998604],[-82.05550196639605,26.640743627583113],[-82.05550162224546,26.640742287360474],[-82.05550128311593,26.640740945330666],[-82.0555009490084,26.640739603298925],[-82.05550061891803,26.640738260362994],[-82.05550029485272,26.640736914716936],[-82.05549997580982,26.640735569971486],[-82.05549966178847,26.640734224321488],[-82.0554993527882,26.640732876864345],[-82.05549904880951,26.64073152850264],[-82.05549874985277,26.640730180138963],[-82.05549845591669,26.640728829065562],[-82.0554981670026,26.64072747799018],[-82.05549788311049,26.64072612691283],[-82.05549760423946,26.64072477402836],[-82.05549733139439,26.640723420238896],[-82.05549706256733,26.6407220673505],[-82.05549679876094,26.64072071175232],[-82.05549654098091,26.64071935615178],[-82.05549628721803,26.64071799964709],[-82.05549603948108,26.64071664223745],[-82.05549579676524,26.640715283020672],[-82.05549555907182,26.6407139247045],[-82.05549532539507,26.640712564581587],[-82.05549509774472,26.64071120445632],[-82.05549487612073,26.640709844328683],[-82.05549465750862,26.640708481492112],[-82.0554944459277,26.640707119555362],[-82.05549423836437,26.640705757617052],[-82.05549403682609,26.6407043929686],[-82.05549383930583,26.64070302922118],[-82.0554936478115,26.640701664568805],[-82.0554934613387,26.64070029901187],[-82.05549327988788,26.64069893345299],[-82.0554931034586,26.640697566989527],[-82.0554929320513,26.64069620052411],[-82.05549276566508,26.640694832251555],[-82.05549260430126,26.640693464879636],[-82.05549244896339,26.640692096602752],[-82.05549229864704,26.640690727421305],[-82.05549215234828,26.64068935823832],[-82.05549201207545,26.64068798815037],[-82.05549187682459,26.640686618060432],[-82.05549174659527,26.640685247065985],[-82.05549162138834,26.640683876972133],[-82.05549150220692,26.640682505070746],[-82.0554913870435,26.640681134070405],[-82.05549127790559,26.640679761262515],[-82.05549117379005,26.640678389355248],[-82.0554910746965,26.640677017446023],[-82.05549098062404,26.640675643729658],[-82.05549089157401,26.640674270913927],[-82.0554908075455,26.640672897193614],[-82.05549072954334,26.64067152347099],[-82.05549065555833,26.64067014884417],[-82.0554905876001,26.6406687751176],[-82.05549052466344,26.64066740048648],[-82.05549046674871,26.640666025853402],[-82.05549041385596,26.640664651218326],[-82.05549036598475,26.640663275678747],[-82.05549032414078,26.64066190194197],[-82.05549028631349,26.64066052639844],[-82.055490254513,26.640659151755166],[-82.05549022773361,26.64065777530475],[-82.05549020597662,26.640656399754953],[-82.05549018924205,26.64065502510579],[-82.05549017853342,26.640653649551663],[-82.05549017184187,26.640652273093405],[-82.05549017117714,26.640650897535377],[-82.05549017553483,26.640649522877997],[-82.05549018491404,26.640648147316043],[-82.05549019931476,26.640646770849536],[-82.0554902187379,26.64064539528368],[-82.05549024318388,26.640644021521037],[-82.05549027365535,26.640642645950855],[-82.05549030914878,26.640641270378733],[-82.05549034966417,26.640639894804632],[-82.0554903952024,26.64063852103375],[-82.05549044576172,26.640637145455717],[-82.05549050134344,26.64063577077833],[-82.05549056194756,26.64063439700161],[-82.05549062857762,26.640633022319896],[-82.05549069922564,26.64063164853923],[-82.05549077589963,26.64063027385364],[-82.05549085759642,26.640628900971254],[-82.05549094431477,26.640627527184296],[-82.0554910370599,26.640626154297603],[-82.05549113382303,26.640624782311942],[-82.05549123661207,26.64062340942133],[-82.05549134341868,26.64062203652915],[-82.05549287403754,26.640596938311084],[-82.0554932836927,26.640584184451242],[-82.0554934442567,26.64057142707821],[-82.05549335874451,26.640558669801173],[-82.05549302414438,26.640545915329103],[-82.0554924414625,26.64053316727201],[-82.05549161170599,26.6405204310451],[-82.05549053487663,26.640507710258742],[-82.05548921097541,26.640495006718094],[-82.05548764000547,26.640482326741378],[-82.05548582397695,26.64046967303555],[-82.0554837618882,26.640457051016615],[-82.05548145374013,26.64044446248974],[-82.05547890254776,26.640431911064102],[-82.05547610831421,26.640419403057912],[-82.05547307003603,26.6404069402767],[-82.05546979173262,26.6403945263293],[-82.05546627139788,26.640382166632058],[-82.05546251204638,26.640369863891554],[-82.0554585146843,26.640357621717808],[-82.05545427931347,26.640345443721145],[-82.0554498079449,26.640333334413743],[-82.05544510258963,26.640321298307843],[-82.05544016425256,26.640309336305553],[-82.05543499293678,26.64029745472508],[-82.05542959266081,26.640285655369986],[-82.05542396443126,26.64027394275289],[-82.05541810824947,26.64026231958152],[-82.05541202813573,26.64025079126988],[-82.05540572409046,26.64023935872053],[-82.05539920013437,26.640228028250075],[-82.05539245626791,26.640216800761042],[-82.05538549550693,26.640205681667847],[-82.0553783188567,26.640194672775277],[-82.05537093033702,26.640183778594654],[-82.05536333195802,26.640173001833016],[-82.05535552372102,26.6401623451981],[-82.05534751065062,26.6401518141035],[-82.05533929475605,26.640141409451],[-82.05533087704391,26.64013113575315],[-82.05532226052826,26.64012099481395],[-82.05531344922929,26.640110992047386],[-82.05530444515621,26.640101128355255],[-82.05529525031959,26.64009140734707],[-82.05528586773389,26.640081831729457],[-82.05527630141837,26.640072405111198],[-82.05526655237882,26.64006313019969],[-82.0552566256384,26.64005400970067],[-82.05524652320682,26.640045045418574],[-82.05523624709542,26.64003624276814],[-82.05522580232618,26.640027601747402],[-82.05521519090911,26.640019125063294],[-82.05520441686397,26.640010817227232],[-82.05519348219994,26.640002679141002],[-82.05518239194022,26.639994713510415],[-82.05517114809537,26.639986923945013],[-82.05515975568811,26.639979312248055],[-82.05514821572324,26.63997187932166],[-82.05513653422926,26.639964629676484],[-82.0551247132149,26.639957563311697],[-82.05511275669981,26.639950684738714],[-82.05510066769718,26.63994399395629],[-82.05508845123013,26.639937493670242],[-82.05507611031359,26.639931187489807],[-82.05506364896462,26.639925074510774],[-82.055051070198,26.639919158342337],[-82.05503837903615,26.63991343988511],[-82.05502557849383,26.639907922748268],[-82.05501267258812,26.63990260602769],[-82.05499966533783,26.639897492429544],[-82.05498656076173,26.639892584660036],[-82.05497336287777,26.639887883620204],[-82.05496007570298,26.63988338840585],[-82.05494670325743,26.639879104431007],[-82.05493324955775,26.63987502988889],[-82.05255393306018,26.639175177770387],[-82.0525528965996,26.63918628281067],[-82.05256302993158,26.63930946105982],[-82.05256961943506,26.639341836601215],[-82.05256887656958,26.63955548350455],[-82.05256688022841,26.639992928091228],[-82.05256405700364,26.64061192680199],[-82.0525578191797,26.641999777072186],[-82.05255349448981,26.64212327833074],[-82.05253021994993,26.642170623638258],[-82.05250456715973,26.642196451904308],[-82.05248108001143,26.642211624207214],[-82.05242681479677,26.6422289749938],[-82.05146988481245,26.642231065724104],[-82.0483625501876,26.642219566270285],[-82.04836413363435,26.64187499113285],[-82.04837279148988,26.63999117640472],[-82.04837905062895,26.638629382053193],[-82.0483585855822,26.638543788460833],[-82.0483124669156,26.6384894163116],[-82.04826717022488,26.63846217324533],[-82.04827073954057,26.637694585808923],[-82.04817896718953,26.637679580555798],[-82.04811342877709,26.637484388000647],[-82.04667000236914,26.637481647677273],[-82.04666926799118,26.637414455831582],[-82.04507606326429,26.637418767004995],[-82.04464735543048,26.637419910453836],[-82.04464950579528,26.637081533075698],[-82.04465125389501,26.636806427016747],[-82.04465300198811,26.636531322752344],[-82.0446547500735,26.636256217574672],[-82.04465649815155,26.635981112386332],[-82.0446582472266,26.635706007187054],[-82.04466174334662,26.635155798562305],[-82.04466523943657,26.63460558808977],[-82.04466611395661,26.634468035464824],[-82.04466698747049,26.6343304828375],[-82.04466971505681,26.63390128028011],[-82.04333417419318,26.633882728104346],[-82.0425375732812,26.63387165633855],[-82.0421465327468,26.6338662190759],[-82.04088862893303,26.633868078294093],[-82.04086383103946,26.63450925149577],[-82.04082930627764,26.634857964872978],[-82.04075556798837,26.63534356124953],[-82.04070641142269,26.63558783371247],[-82.04067642815984,26.635751116863712],[-82.0406112600485,26.63616066587104],[-82.0405962482009,26.637425747776827],[-82.03967780443371,26.637440629093735],[-82.03967903895281,26.637042813256052],[-82.03968152775298,26.636240484231354],[-82.03976469544129,26.636240675818268],[-82.0398156054301,26.635989314205613],[-82.03986816939077,26.63573514141201],[-82.03994063925857,26.635388418716403],[-82.04003707726434,26.634888682589153],[-82.04008064138772,26.634571327630784],[-82.04010509947936,26.634316457689106],[-82.04012559343252,26.633869200933695],[-82.03854526226478,26.633865620570592],[-82.03802193245639,26.63386448697843],[-82.03749451888692,26.633865980903455],[-82.03749521177119,26.63517322003838],[-82.03749501459771,26.635965978306526],[-82.03801583875939,26.635966146011853],[-82.03801381663882,26.636672091002584],[-82.0380115408726,26.63744927352615],[-82.03589344605322,26.637480317294354],[-82.03324102345215,26.637473845071327],[-82.0318338696505,26.637484176852556],[-82.03182517309745,26.63708639848917],[-82.03450069077984,26.63710200866801],[-82.03499503683153,26.637107993045937],[-82.03548924022446,26.637120189224873],[-82.03598320662782,26.637138594522323],[-82.03647683769289,26.637163205355414],[-82.03646382417844,26.633857365532855],[-82.03594049657562,26.633853489407898],[-82.03541716900575,26.63384961135713],[-82.03437048283084,26.63384185038843],[-82.03384715536029,26.633837967462846],[-82.03175381367036,26.633822413802147],[-82.03157329085401,26.62556433688987],[-82.0315236481714,26.622584403658845],[-82.03154331233279,26.614886326610083],[-82.03871619362872,26.614797482676227],[-82.03995692087342,26.614872297420224],[-82.03982264862466,26.609915218718108],[-82.03975361072327,26.606972114436573],[-82.03975251182196,26.60683438674887],[-82.04641456028205,26.60679176279342],[-82.04673397490949,26.60656973107254],[-82.04713746501237,26.605776735478255],[-82.04795781059306,26.603778342659712],[-82.048125855582,26.602997518879626],[-82.04656213846029,26.602099190736357],[-82.04594082931791,26.600731844450795],[-82.04511605233803,26.599778384148607],[-82.0453491897067,26.598163926653136],[-82.04550792552376,26.596511282327942],[-82.0455817528895,26.595116583516397],[-82.04616549957717,26.593463800143386],[-82.04607990357955,26.591983179103497],[-82.04728975525187,26.589785697886953],[-82.04736377556677,26.58850046099685],[-82.04743779525566,26.58721522293547],[-82.04705522070364,26.58656654895819],[-82.04762504285074,26.58396193334096],[-82.04813990588151,26.58248723367031],[-82.04885995957623,26.58195682366902],[-82.04960518203632,26.580394713864237],[-82.0504055116534,26.57930663218499],[-82.05069738720081,26.57864978764822],[-82.05086331531663,26.578482558778997],[-82.05101574511858,26.577825763250324],[-82.05148244455746,26.577122859282643],[-82.0515331680699,26.576709117302055],[-82.05157284515971,26.576344910659238],[-82.05141997425093,26.576004654767797],[-82.05108038690398,26.57386141341565],[-82.05265357491368,26.572887669876792],[-82.05274647353525,26.57276225722475],[-82.05248743161125,26.572559360444085],[-82.05180349385688,26.572458114582105],[-82.0516506257733,26.572111888007697],[-82.05188289160698,26.5718371667547],[-82.0525202055293,26.571627969967242],[-82.05372171847372,26.571054366119554],[-82.0556406970862,26.571310355038634],[-82.05674262915868,26.57080243819172],[-82.05722688596369,26.569924599846402],[-82.05795756863193,26.5705810452292],[-82.05832281685008,26.570718215045652],[-82.05811068355203,26.571381013195218],[-82.05827014973639,26.571607822595723],[-82.05944559943288,26.57204914449125],[-82.06008941933047,26.57160706677711],[-82.06116440544017,26.57040059394176],[-82.06150258459509,26.569576535852224],[-82.06296883862542,26.5675877603277],[-82.0637586737521,26.567121719123612],[-82.06412512109975,26.56634235153027],[-82.06347195725971,26.565199831995823],[-82.06188401310061,26.562752227252144],[-82.06178407033104,26.56208955839526],[-82.06165116648815,26.56186274112617],[-82.06052225442515,26.561361713053113],[-82.05873489147397,26.558514588139943],[-82.05850216265004,26.557792267334978],[-82.05833464410198,26.557504810295622],[-82.05752355995192,26.555722734847055],[-82.05682769234203,26.554801780603817],[-82.05663485837981,26.55416899542184],[-82.05644209770912,26.553679500768933],[-82.05652133375096,26.552807791573052],[-82.05668721038411,26.552628614779486],[-82.05669251638889,26.552544618633615],[-82.05646134705829,26.552318244130767],[-82.05634836331957,26.55205559095744],[-82.05635484948763,26.551745128059213],[-82.05648747083147,26.5514405859662],[-82.05659328584409,26.55062260002387],[-82.05657310070791,26.550073331805336],[-82.05691827239556,26.550019461175513],[-82.0577411440105,26.549434031174208],[-82.05806604603941,26.548681629728016],[-82.05784022569796,26.548448876416],[-82.05726248296716,26.54803118186862],[-82.05623438211096,26.54749814832995],[-82.0558350759672,26.54767949505789],[-82.05545678246692,26.54786472454047],[-82.055111616539,26.547918592540793],[-82.05481283878379,26.54780527055047],[-82.05446752324357,26.547542704864796],[-82.05416203268828,26.547268183489862],[-82.05393600514702,26.54656973271591],[-82.05364351235141,26.54568622468843],[-82.05297938174179,26.545005847813126],[-82.05225121528694,26.54451385052172],[-82.05161829948788,26.54441527786377],[-82.05096720811876,26.543155757944547],[-82.05040282492426,26.542809675097356],[-82.05086787959478,26.54198666283418],[-82.05008360889776,26.541448536430533],[-82.0479193086596,26.540643276711826],[-82.04640568573734,26.540184056469396],[-82.04527037977473,26.539593351748152],[-82.04455992006129,26.53904429843357],[-82.04374296584453,26.5377131515007],[-82.0432512667224,26.536358019150253],[-82.04331719924984,26.535175858927282],[-82.04412388567505,26.53445467103988],[-82.04397292804103,26.53333568140172],[-82.04335613880599,26.532817536862847],[-82.04290471946322,26.532620649652838],[-82.04170334558711,26.532621006075217],[-82.04092004093009,26.53237047590801],[-82.04047034117163,26.53211293584031],[-82.04012339555041,26.531922921403556],[-82.03985794540225,26.532054344733805],[-82.03973195042428,26.532388723321837],[-82.03937355283168,26.53245449672235],[-82.03938517125194,26.531756293069357],[-82.03914082391144,26.53121868654986],[-82.03896147863215,26.530812747406376],[-82.03888833284236,26.530412749865636],[-82.03893460639269,26.529857489491782],[-82.0390207295738,26.529379832825494],[-82.03917321810799,26.528884246436377],[-82.0397569609016,26.52792284860655],[-82.04096484816904,26.52561020202076],[-82.04109712249299,26.52525062471306],[-82.04073164725327,26.52515827229925],[-82.03995514957666,26.525248048216127],[-82.03908537756291,26.525538740761412],[-82.03869427991536,26.525726029281987],[-82.03824720794229,26.525680847781814],[-82.0375925312908,26.525720353168648],[-82.03639130260045,26.5259535115595],[-82.03473880457543,26.526371851948575],[-82.03229659880118,26.52720828425967],[-82.03148692931127,26.527423399767887],[-82.02850062390006,26.529047980712427],[-82.02676183768592,26.529764766481335],[-82.02592558986463,26.529973885467484],[-82.02431270594488,26.52984879051304],[-82.02174192034937,26.529460636767997],[-82.02040986208938,26.52910907143902],[-82.01983901493898,26.52884048421403],[-82.01840316117264,26.528878331893196],[-82.01688548378044,26.529019976977203],[-82.0158833057028,26.52932458275191],[-82.01382973658939,26.53039421902577],[-82.01382964531776,26.530394558416564],[-82.0131688333286,26.530704024461233],[-82.01237247727792,26.531844444206364],[-82.01171545961427,26.53266244514759],[-82.01049423169583,26.533313314805774],[-82.00853633295341,26.533371266731447],[-82.00744099574455,26.53328365476896],[-82.00630600564246,26.533582230066123],[-82.0057750154977,26.53375539503591],[-82.00523136319646,26.534307573900524],[-82.00517768354247,26.534704712069068],[-82.0053635620618,26.535283834826007],[-82.00560253169111,26.53561816895804],[-82.00601407310408,26.535815174993914],[-82.00639907674375,26.536227117033604],[-82.00669778324956,26.536448008276576],[-82.00635928410698,26.536818188954864],[-82.00534373153101,26.537063016852475],[-82.00386352768014,26.537039183373548],[-82.00338561305,26.536985461303257],[-82.00288779022124,26.537075028386152],[-82.00203153257948,26.537272066822023],[-82.00002653156379,26.53673084252175],[-82.00036930280092,26.53424959449363],[-82.00023872015156,26.532957584564723],[-81.9994062908808,26.531915164985467],[-81.99826375213661,26.53123978661065],[-81.99700696720406,26.530858035139953],[-81.9945586457975,26.531401194916544],[-81.99189808279937,26.532399440656885],[-81.98775218246713,26.533015786250246],[-81.9835246726014,26.533308998827184],[-81.9830677104268,26.532883169165302],[-81.98236589642391,26.53260412759163],[-81.98172934398592,26.532515955301115],[-81.98074991936262,26.533073740354194],[-81.98012956638742,26.533690296610775],[-81.98052124141518,26.53405739924911],[-81.97810506658544,26.536464885981868],[-81.97738694795338,26.536038997962432],[-81.97724002985889,26.536112383919814],[-81.97696247077812,26.536479387807304],[-81.97452957133231,26.540134774750456],[-81.97451484483658,26.541982596482473],[-81.97444492388652,26.542298710479372],[-81.97444507977059,26.543307089149515],[-81.97416043642866,26.54330722738628],[-81.97383285414476,26.543344023898836],[-81.97360953014602,26.543406233925214],[-81.97332329057339,26.54348596864731],[-81.97303227536328,26.54358443916713],[-81.97276114151241,26.543744207317],[-81.97261045184895,26.543874704842818],[-81.9725053450376,26.54399288406462],[-81.97244691528992,26.54403924526125],[-81.97232021354216,26.544108056441676],[-81.9721123411371,26.544206814684394],[-81.971897301235,26.544292256813733],[-81.97163907898195,26.544374116600768],[-81.97151154504142,26.544407988677158],[-81.97134855887978,26.544456353942586],[-81.97107683152981,26.54456822988883],[-81.96982524936112,26.545098165149177],[-81.96967047824879,26.545155762119833],[-81.96960441186022,26.54517479672028],[-81.96948859657499,26.54519140616949],[-81.96923556805395,26.545167913721848],[-81.96888328637112,26.545115216020083],[-81.96849684280393,26.545095706077365],[-81.9683591050849,26.545096176518577],[-81.96789660743181,26.545139634851452],[-81.96698826857768,26.54522869998568],[-81.96678262006793,26.545248864347617],[-81.96662684803871,26.545274045068776],[-81.96642582924282,26.545330653762925],[-81.96623439077688,26.54541975658093],[-81.96614007073713,26.545362340877098],[-81.96601105447016,26.545298736674017],[-81.96578767627615,26.54522238474751],[-81.96547774380802,26.545164479828905],[-81.96527541412354,26.545130666768205],[-81.96510802248366,26.545116778056737],[-81.9646672305347,26.545156990853712],[-81.96363544897106,26.54516034903085],[-81.96224976476955,26.544872517578074],[-81.9621449445281,26.544843855393765],[-81.96199788728693,26.54479183858921],[-81.9617788141631,26.54471493725197],[-81.96154983481283,26.544648321752664],[-81.9613177761497,26.544592678074615],[-81.96100374080486,26.54453558910331],[-81.9608326719254,26.54450867692931],[-81.96065444848608,26.54445323198773],[-81.96054711264219,26.544408348037997],[-81.96038791703972,26.544355322508462],[-81.96021260227451,26.54430881636515],[-81.96007000209892,26.54428943988568],[-81.95988370141983,26.544272512388464],[-81.95955392570583,26.544264733479917],[-81.95901223726528,26.54420221745448],[-81.95880653783054,26.544183586966895],[-81.95870564375437,26.544183534307248],[-81.95858452158393,26.544193264502262],[-81.95825853093027,26.544251060092325],[-81.95821215762932,26.54420161328354],[-81.95808519299361,26.544089104527195],[-81.95792366097027,26.54398031413774],[-81.95774164589966,26.543893187346384],[-81.95713215236518,26.543685011595972],[-81.95663265260669,26.543516989547765],[-81.9564793786746,26.54342480894863],[-81.95620826221112,26.543373758256262],[-81.95605474620486,26.54324404390376],[-81.95592727359836,26.543153398778042],[-81.9558068408312,26.543086867134743],[-81.95562543608072,26.54301234908616],[-81.95549774545592,26.54297590071043],[-81.95540480914389,26.542956059382725],[-81.95530872719111,26.542929933941558],[-81.95520775972408,26.542886550806692],[-81.95500051517519,26.542797504458758],[-81.95454825686924,26.542624505785707],[-81.9540674482359,26.54243150367084],[-81.95379817746372,26.542320855975888],[-81.95367457561244,26.542274341384886],[-81.95350297417191,26.542229361722473],[-81.9533031850984,26.542200467059235],[-81.95326236763471,26.542197246710103],[-81.9530691471716,26.542118141685442],[-81.95304263129222,26.542082419388997],[-81.95284304999703,26.541946331102196],[-81.95270992092411,26.54188629503551],[-81.95258641203252,26.541842879994917],[-81.95208040641495,26.541371846283837],[-81.95191397166292,26.541253288385196],[-81.95134813065464,26.540938525991173],[-81.95089425613332,26.540686043939594],[-81.95076306750973,26.540625586098866],[-81.95041193553526,26.540562638223715],[-81.95013573940756,26.540611952564557],[-81.9490102268691,26.540089492914795],[-81.94870677762769,26.539951853359035],[-81.94855869451034,26.53991232886348],[-81.94846713724857,26.53989346193515],[-81.94808967783499,26.539832136153393],[-81.94798616649739,26.53981851955907],[-81.94782642214331,26.539818541520397],[-81.94771419125104,26.539829424694123],[-81.94761358811972,26.539846791890596],[-81.94747513706834,26.539884764302112],[-81.9473739976248,26.539924894958432],[-81.94730034404976,26.539961374719073],[-81.94720649910658,26.540016688048677],[-81.94708426824725,26.54010780996102],[-81.9470066100684,26.540182211244193],[-81.94694700867969,26.540248767400012],[-81.9468787830266,26.540341384084574],[-81.94681154201633,26.54046163811896],[-81.94676756396484,26.54057212915167],[-81.94673253533423,26.540693262577225],[-81.94668195314587,26.540933545523533],[-81.94665374868012,26.54118832912416],[-81.94662667560914,26.541760691004132],[-81.94658327584595,26.542722811663385],[-81.94668281233336,26.54365080478805],[-81.94644815042749,26.545214194471143],[-81.94631242010294,26.546463757305805],[-81.94659127997988,26.547411752464626],[-81.94660236251092,26.54766095616576],[-81.9465475860508,26.547805882922546],[-81.94638804998355,26.548046408039223],[-81.94615735249457,26.54847686107496],[-81.94598448169499,26.548945040319328],[-81.94596547975837,26.54916110505822],[-81.94598442389409,26.549310461519067],[-81.9460501317879,26.54950470256494],[-81.94583665310367,26.549902723549653],[-81.94571604822339,26.550171440268887],[-81.94554998697893,26.55061963590093],[-81.94538491009534,26.55091084095935],[-81.94515415062568,26.55123222635123],[-81.94503203272885,26.551401155765262],[-81.94478170134714,26.551650064341636],[-81.94440289178841,26.55222739248408],[-81.94433267985849,26.55234908815212],[-81.94417481236587,26.552516185883313],[-81.94387801676729,26.55302908848708],[-81.94376143194827,26.553541903704456],[-81.94348207555392,26.55438339057288],[-81.9433332804234,26.55501093391513],[-81.94312390639062,26.555605701746007],[-81.94296491710095,26.55631333795554],[-81.94272529594964,26.55649706879341],[-81.94227100087686,26.557015837195433],[-81.9421193548038,26.55739665092569],[-81.94086424062081,26.55791266373621],[-81.93962681155266,26.55811919944193],[-81.9386841270781,26.558167590997456],[-81.93744581959848,26.558312375323244],[-81.93711864650975,26.558426854372588],[-81.93692328250852,26.558537864587194],[-81.9366510504016,26.55859971686176],[-81.93633165744467,26.558751951827066],[-81.93602023229202,26.559085996477716],[-81.93589937493772,26.559546229579777],[-81.93595374852455,26.55984974045164],[-81.93618433197258,26.560471086034017],[-81.93632831548844,26.560711450705192],[-81.9363225639133,26.56101731017109],[-81.936316669565,26.56133627180705],[-81.93616797843514,26.561625901585522],[-81.93604169758913,26.561795675019777],[-81.93590129052043,26.562116441847262],[-81.93568096750415,26.563098402565544],[-81.93539273032206,26.563517190125502],[-81.93519362439581,26.563784860767164],[-81.93516431975281,26.563857930617047],[-81.93504915794075,26.564193836585588],[-81.93498399970203,26.56427808959091],[-81.93442438686736,26.564944895683283],[-81.93404612074488,26.565408699767506],[-81.9337816859473,26.56576394781188],[-81.93347865493875,26.56617946603706],[-81.93299919042855,26.56677573614423],[-81.93263053428961,26.56724851005411],[-81.93218641302796,26.567809395614834],[-81.93168991729836,26.568449581096523],[-81.9311662959021,26.56912726579845],[-81.93086515250643,26.569564942648785],[-81.93061886237206,26.57001066250643],[-81.93028367432301,26.570758557105414],[-81.93009687862858,26.57129560006571],[-81.92997309094444,26.5716036465073],[-81.92976994986113,26.572069533029005],[-81.92971358938979,26.572269256414366],[-81.92967141884976,26.572575108848568],[-81.92962758569713,26.57294353718869],[-81.92965013097478,26.57304397043338],[-81.92980180441478,26.573656892859486],[-81.92986447093276,26.574176479767846],[-81.92995322667323,26.575022084302162],[-81.93012641373736,26.575758323524948],[-81.93025736756043,26.576123584544877],[-81.93040290069544,26.576557243857174],[-81.93055120944923,26.5770875715639],[-81.93056550997481,26.577212681423912],[-81.9306117939376,26.57761757114392],[-81.93062082288124,26.577765215568544],[-81.93058790853621,26.577875626950274],[-81.93049181727767,26.578015640931934],[-81.93032044578179,26.578226111491674],[-81.93005268044197,26.57855643748447],[-81.92979390131663,26.57887647768948],[-81.92943793987364,26.579316967049945],[-81.92934758023313,26.57941251713885],[-81.92873310589269,26.580057245809233],[-81.92840875576931,26.580419909498193],[-81.92828318925727,26.580614571563757],[-81.92775455129073,26.58141380452619],[-81.92763585518081,26.5815956109704],[-81.92738948319352,26.582124649233503],[-81.92715538521614,26.582742927492188],[-81.92711131148265,26.58299512601911],[-81.92712282228129,26.583167659329565],[-81.92705471368295,26.58348547207997],[-81.92696177755074,26.583806112546895],[-81.92689227199445,26.5840017488589],[-81.92683258882995,26.58412715131864],[-81.92671350715666,26.584305517797898],[-81.92649936261337,26.5846646114183],[-81.92622026423781,26.58540538686012],[-81.92616996111532,26.585684253719393],[-81.92611132456061,26.586793049762694],[-81.92613526234398,26.58706955323067],[-81.9262037196537,26.58747563591194],[-81.92627498645277,26.587795506887456],[-81.92630340985465,26.58798977818625],[-81.92644049209721,26.58873089577007],[-81.92655734276917,26.589249866547362],[-81.92667171846703,26.58967001797618],[-81.92672419797313,26.589765982728245],[-81.92686239773708,26.58998209194681],[-81.92708573322815,26.590237754314064],[-81.92720387685634,26.590454452244906],[-81.92730320800074,26.59083609485825],[-81.92745392709298,26.591371369522818],[-81.92759994973788,26.592219850357704],[-81.92746366384462,26.592711932620883],[-81.92730652602921,26.59308183763895],[-81.92705454416351,26.593675008733918],[-81.926825373289,26.594113502050078],[-81.92674005227684,26.594200575607058],[-81.9264942574783,26.594451418572127],[-81.92633516708672,26.594680703095186],[-81.92629161220451,26.594791540048384],[-81.92605861226211,26.595199892161112],[-81.92593496050974,26.595336509936523],[-81.92582736639841,26.59548405565789],[-81.92555228515266,26.59591338040857],[-81.92541323289517,26.596407333692184],[-81.92526857714904,26.59695060748619],[-81.92516107706511,26.59717685244324],[-81.92509260771091,26.597412260316673],[-81.92501633998927,26.597909361008615],[-81.92491799113135,26.598552567774906],[-81.92479649112164,26.599117600430677],[-81.92462323916389,26.59994888584574],[-81.92423116964234,26.600140794766606],[-81.92398902789475,26.60020860002314],[-81.92377638703879,26.60031358892331],[-81.92366817142882,26.600348545579283],[-81.92342611017945,26.600431526271148],[-81.92323420223114,26.60050439287174],[-81.92310591010585,26.600509815958404],[-81.92276653715345,26.600513694831786],[-81.92252857084317,26.600469299195037],[-81.92236321464264,26.600419484747572],[-81.92211026076046,26.60033593979564],[-81.92171445666527,26.600293360830914],[-81.92141683005411,26.60033141571227],[-81.92104856037137,26.600446339728624],[-81.92085987119135,26.600515810224074],[-81.9206810357069,26.600599486598792],[-81.92037259159828,26.60070253325261],[-81.91995390357188,26.600843432886666],[-81.91946788286846,26.601040685975835],[-81.91886097758247,26.601287007996998],[-81.91838659958626,26.6014524743702],[-81.91816215094357,26.601534561706163],[-81.91798146743072,26.60158028009895],[-81.91736362638684,26.6017366117266],[-81.91715708322482,26.60181386721249],[-81.91660119849803,26.60210250967902],[-81.9160874658243,26.602391926682312],[-81.91554570415357,26.60267594477716],[-81.91523290016443,26.602859553820217],[-81.91458429456767,26.6032490900012],[-81.91435921630301,26.60342137242937],[-81.91400923299486,26.603815472866945],[-81.91339612429051,26.604539246621766],[-81.91285428892675,26.60520185951513],[-81.91230832642852,26.60608451561309],[-81.91193969446844,26.60703396801683],[-81.911687750955,26.607313730180987],[-81.9114859438648,26.607447748485264],[-81.91134693465577,26.607580877759293],[-81.9112236642726,26.60773117425732],[-81.91099545289629,26.608065021182668],[-81.91093301860415,26.608370773416606],[-81.91066111055866,26.60839642819919],[-81.91471190767669,26.624981143065558],[-81.92364940146045,26.624986742631478],[-81.9237094693771,26.63051879243429],[-81.92370153467589,26.637828649639264],[-81.92355720673264,26.64530613209703],[-81.92341368820452,26.652782408302038],[-81.923411855676,26.653505407057384],[-81.92295267934914,26.653497526561562],[-81.92294988531071,26.654597969314533],[-81.92340906603955,26.65460585073024],[-81.92339519614002,26.66007775654937],[-81.92139891904955,26.6600574773441],[-81.92136724137627,26.667367389948694],[-81.92157552623779,26.669223642633824],[-81.91756161052645,26.669204682408086],[-81.91773384985144,26.67106693591294],[-81.91974591329694,26.67107548614021],[-81.91990725863508,26.672733933971614],[-81.92105412039525,26.672737867633888],[-81.92207764473953,26.672741370629115],[-81.92227366750151,26.67478404291911],[-81.92188840965711,26.674785037480166],[-81.92006652128492,26.67479381630262],[-81.92018047929136,26.67596451141047],[-81.92028486179792,26.676919715050335],[-81.91842059931373,26.678473992013352],[-81.91876990091156,26.682232540006844],[-81.91747357814192,26.682238308548932],[-81.91688661092535,26.68223984730043],[-81.91663436266532,26.68223838530048],[-81.91655753193345,26.6819885181437],[-81.91651041047432,26.68177257697023],[-81.91631298979752,26.679745047171764],[-81.9162015861004,26.67957000861606],[-81.91581616259609,26.679777395837874],[-81.91512695287426,26.680148238933594],[-81.91402272358023,26.68067764000196],[-81.91126414245849,26.68199978471368],[-81.91153110712486,26.682318396403442],[-81.91066670211227,26.68233490623339],[-81.91055684492446,26.684035723828405],[-81.91106205813311,26.684062465348727],[-81.910875149186,26.686989016395025],[-81.90950952130852,26.686988849633135],[-81.90833016002787,26.686988694416282],[-81.90818127927245,26.689192938065],[-81.90817083282145,26.68956828537359],[-81.91427011829389,26.689609134394498],[-81.91411214704729,26.693082560121272],[-81.91546955256796,26.693115463550953],[-81.91695385200514,26.693128562262284],[-81.91746029582953,26.69312706680794],[-81.92024843561902,26.6931500370536],[-81.92043235866426,26.693180726312143],[-81.92042413591253,26.69340067936099],[-81.92048648677454,26.69661815023757],[-81.92063966067352,26.696753723706344],[-81.92419719093799,26.69672684515909],[-81.92419689990957,26.69613099209568],[-81.9248926188757,26.69612802674598],[-81.92489375758136,26.696746936922942],[-81.92489758650089,26.69692578895232],[-81.92495216477464,26.70159597096985],[-81.92496565080663,26.704094590475012],[-81.92506119920166,26.70409021013701],[-81.92519377426034,26.704089937076777],[-81.92531629771113,26.704089829194306],[-81.9254541376953,26.704089558660677],[-81.92557666226189,26.70408927996474],[-81.92571450124107,26.704089008275172],[-81.92583702569593,26.704088900846358],[-81.92597486567965,26.704088628904536],[-81.92609738924016,26.70408834975862],[-81.9262352291122,26.70408824995841],[-81.92635775367776,26.704087969685713],[-81.92649559265546,26.704087697237714],[-81.92661811710988,26.704087589134755],[-81.92675595709153,26.704087317337056],[-81.92687848065104,26.70408703661439],[-81.92701632063203,26.70408676456386],[-81.9270406333548,26.704086777061473],[-81.92692581801471,26.707691201062655],[-81.92610298920607,26.707692647049026],[-81.92500591670186,26.707693402988205],[-81.92500793916926,26.70788758425168],[-81.92501266671584,26.70834160863102],[-81.9250431215932,26.71128755379527],[-81.92503675984891,26.711287580220784],[-81.9249348389618,26.71130534524779],[-81.92447879108204,26.71131513378118],[-81.91690607410567,26.71147745962412],[-81.91576560991798,26.7115003584392],[-81.91541557144151,26.711499239552563],[-81.91008751223202,26.711481919094204],[-81.90774304454425,26.71147450076869],[-81.90774128374274,26.71553830820438],[-81.90419609684561,26.716428637844423],[-81.90436109647429,26.71695853078119],[-81.90426668728452,26.716982239463075],[-81.90448943614086,26.717697590512728],[-81.90774070386946,26.7168810805621],[-81.90772660330808,26.71925021338025],[-81.90757097966585,26.72496365070719],[-81.90757583593894,26.725275352057032],[-81.90692166206141,26.72540140288979],[-81.90722146117835,26.72597121317667],[-81.9100781163183,26.725974341368314],[-81.91312811254994,26.72598948801739],[-81.92476397046244,26.725912009955916],[-81.92494171669006,26.7259132684371],[-81.92493886033304,26.73026642374721],[-81.92484035010224,26.73444181845026],[-81.92488630512969,26.740171871726936],[-81.92488891615886,26.74063497924157],[-81.92747261492343,26.740576352730493],[-81.93007002407231,26.740450224939238],[-81.93506457684423,26.740478588685487],[-81.94012490869252,26.740576940566417],[-81.94017305460542,26.7426698393475],[-81.94017422133189,26.742695601400495],[-81.94041224592974,26.747947890899265],[-81.94040883216405,26.748039772476655],[-81.94016846046111,26.75349342138864],[-81.94009375531228,26.755192716784777],[-81.94009173752826,26.7552386411447],[-81.92786552634848,26.755248936776955],[-81.92798751111106,26.755474253608764],[-81.9279970734683,26.755474265686313],[-81.92930395961695,26.75789669637268],[-81.92479915207944,26.757882530969383],[-81.93143818756752,26.769975439380136]],[[-82.04828027167193,26.715334263728277],[-82.04928540480138,26.715333592386976],[-82.05029053690212,26.715332914829695],[-82.05129566897811,26.715332229250958],[-82.05230080203438,26.715331536553016],[-82.05228665957348,26.717075188717335],[-82.05128204773239,26.717077733253017],[-82.04826820985765,26.717085325995228],[-82.04828027167193,26.715334263728277]],[[-81.93060535162705,26.672424520159208],[-81.9303932138708,26.672507912565784],[-81.93040113558465,26.672337625105342],[-81.93041491444033,26.671700536464556],[-81.93041523911927,26.671668795128024],[-81.93041698189013,26.671498788034334],[-81.93041421056911,26.671342258053482],[-81.9304150716144,26.671188196635597],[-81.93042615047602,26.670670759758064],[-81.92997239320644,26.670668054707],[-81.92997487735681,26.670461340391714],[-81.93042943733404,26.67046437166297],[-81.93043220706018,26.670209498698984],[-81.93043545535103,26.67005174230515],[-81.92997982244114,26.67004968803528],[-81.92998483309113,26.669632602977014],[-81.9304400829005,26.669639095093082],[-81.93044542483067,26.66881377792123],[-81.92999470290684,26.668811048262093],[-81.92999718170746,26.66860472381005],[-81.93044776518572,26.668607452489844],[-81.93044938319937,26.668401124893673],[-81.93045121379255,26.66816728634078],[-81.93045248379427,26.667933444797985],[-81.93045383044583,26.66768584685408],[-81.93110767843001,26.667703082686625],[-81.93110629704319,26.66790214454774],[-81.930647169785,26.66789796783502],[-81.93064139546706,26.66858522690245],[-81.9306399302885,26.66879688889866],[-81.9306366139909,26.66921711949568],[-81.93063364723005,26.669625809678134],[-81.93109415979511,26.66962828933708],[-81.93109055782276,26.669889643456898],[-81.93063180922903,26.66987910358401],[-81.93060524498932,26.671717519782007],[-81.93106534196805,26.671721698023266],[-81.9310647884154,26.671811916459077],[-81.93106406900792,26.67192901403854],[-81.93106364354001,26.671998355553594],[-81.93060316409455,26.67199348843998],[-81.93060535162705,26.672424520159208]],[[-81.93107879069949,26.670676455493656],[-81.93108478640649,26.6702586334866],[-81.93153913416268,26.6702624626066],[-81.93153295141835,26.670681660999723],[-81.93107879069949,26.670676455493656]],[[-81.92890698636039,26.66500886613135],[-81.92890657471676,26.66566655277921],[-81.92890584484054,26.666834396981848],[-81.92890553903742,26.66732289051194],[-81.92849732252407,26.667318902006837],[-81.92761955267925,26.667310030075743],[-81.92762112625108,26.664674639903286],[-81.92849899581256,26.664660409952113],[-81.92890720842823,26.664653801080572],[-81.92890698636039,26.66500886613135]],[[-81.9254964943948,26.66727308353988],[-81.92534509547546,26.66727268726618],[-81.92534764869984,26.66672247016603],[-81.9246914783665,26.666720751977685],[-81.92468969153663,26.66727097127263],[-81.92453658375838,26.66727057052396],[-81.92453805882765,26.666816638867118],[-81.92420888489319,26.66681577499353],[-81.9242074095258,26.667269706644788],[-81.92339404955112,26.667267569984322],[-81.92336484686834,26.66475078501435],[-81.92351099456219,26.66474942592354],[-81.92376892240534,26.664618260560285],[-81.92376724587115,26.664524314965696],[-81.9241729658091,26.664522299021094],[-81.92417384895411,26.664643729079053],[-81.92420968122944,26.664649674627064],[-81.92495176665153,26.665001151377453],[-81.92529440879942,26.66430380273218],[-81.92559855416283,26.663684797164695],[-81.9259206231459,26.66368181536877],[-81.92604310563125,26.663679816737726],[-81.92616558811321,26.663677817098474],[-81.92628806958653,26.66367581735316],[-81.92641045662403,26.66367381745338],[-81.9265329380888,26.66367181839956],[-81.92665542055472,26.66366981833812],[-81.92670326479839,26.663669156149414],[-81.92670289988818,26.664235540109978],[-81.92670260678814,26.664689525830386],[-81.92670215336379,26.665392825949663],[-81.92548303016724,26.665374492007334],[-81.9254964943948,26.66727308353988]],[[-81.99271239408124,26.656376776871507],[-81.99117217553284,26.65637486270186],[-81.99117127810202,26.65592288068793],[-81.99134673066725,26.65592533119373],[-81.99148654695104,26.655923419816155],[-81.99158928396818,26.655923556808975],[-81.99183662050505,26.655926220347716],[-81.99208156643742,26.65592657899628],[-81.9920989105968,26.65592672166899],[-81.99240646885178,26.655925105637376],[-81.99244658766406,26.655925113190616],[-81.9926939292446,26.65592781675716],[-81.99271507555,26.65592781784256],[-81.99271239408124,26.656376776871507]],[[-81.99170601619866,26.645009434147557],[-81.99170469890112,26.645947566249607],[-81.99170228711976,26.646519011000475],[-81.99069557313709,26.64651808940769],[-81.9906970417446,26.645277208335315],[-81.99170383737044,26.64481781628577],[-81.99170601619866,26.645009434147557]],[[-82.02408968716198,26.63768534434094],[-82.0240897665231,26.63768542104831],[-82.02408252897364,26.641152523748058],[-82.0239104201774,26.6411516926185],[-82.02356449766937,26.641147792477916],[-82.02357412453277,26.637682410652513],[-82.02408968716198,26.63768534434094]],[[-82.01839381521928,26.639295550523947],[-82.01785831701326,26.63931495784351],[-82.01786201240179,26.637889592098954],[-82.01786199097018,26.637887406912178],[-82.0183947677232,26.637868089286684],[-82.01839381521928,26.639295550523947]],[[-82.01974206412031,26.63383783142498],[-82.01947000815983,26.63384411761946],[-82.01944095900531,26.632830613647286],[-82.01947250723903,26.63192039643425],[-82.0194720164773,26.631039639798022],[-82.01946709694393,26.630106650262896],[-82.01939641812871,26.630112027674638],[-82.01939598448982,26.62995271813006],[-82.01938806423648,26.629528168273538],[-82.01938491579322,26.629308097929012],[-82.01938359218335,26.629094107235737],[-82.0203397922223,26.629077097817497],[-82.02148932964795,26.629056641068008],[-82.02152813142364,26.63009068953436],[-82.02361389036493,26.63007062592163],[-82.02357800465639,26.62921416660269],[-82.02353496159205,26.628253049284908],[-82.02454727624657,26.628258526646864],[-82.02555959099142,26.62826399680397],[-82.02554512393256,26.627810827860667],[-82.02553065698942,26.62735765888694],[-82.02549965558609,26.62641931414484],[-82.02753177407693,26.626439742055734],[-82.02755127780422,26.627125820219046],[-82.02757260024941,26.627852610596715],[-82.02763610266464,26.63009323524225],[-82.02765354988226,26.631935179493006],[-82.02766227421371,26.63285615143838],[-82.02767093716409,26.633780197525798],[-82.0262818189708,26.633769770645944],[-82.02390071685052,26.633739613418367],[-82.02360802325212,26.633750500708253],[-82.01974206412031,26.63383783142498]]],[[[-81.9042998099862,26.67963136287478],[-81.9043295961845,26.67992408805385],[-81.90438302329612,26.680444167624906],[-81.90441476564551,26.6807531587728],[-81.90444401452334,26.681037874825353],[-81.90448601986017,26.681446759943515],[-81.90455180914716,26.68208715408213],[-81.90752208218571,26.682094430760188],[-81.90820205620321,26.68209505326749],[-81.90842312349749,26.68209138612938],[-81.90842021900139,26.682004297705806],[-81.90902024572253,26.681959888586178],[-81.90955227819316,26.681872264496644],[-81.90999849572901,26.681761825213464],[-81.91032586417033,26.681657995941283],[-81.91084650657943,26.681450004615634],[-81.91255250943657,26.680637010400474],[-81.91203967321275,26.674789098495065],[-81.90908856856612,26.67478815498624],[-81.90731523095086,26.674781161217915],[-81.90675703861216,26.67477585155057],[-81.90664212629716,26.67477548815592],[-81.90663715242191,26.67469361974696],[-81.9066380311516,26.674680507460433],[-81.90664234360965,26.67466159917603],[-81.9066626378432,26.674580777227206],[-81.90668050499117,26.674492213949215],[-81.9067169183511,26.67443119733499],[-81.90673672513962,26.674338118748366],[-81.9067568717653,26.67425704395934],[-81.9067566065199,26.674148332827652],[-81.90675914707762,26.67404985352032],[-81.90674475269287,26.674003229677698],[-81.90673509398053,26.67397194669842],[-81.90672942636542,26.673882015870728],[-81.90668490949867,26.673821931735212],[-81.90663733356156,26.673744398459505],[-81.90660174573374,26.673669110575943],[-81.90657057187413,26.673597083945037],[-81.90653872789761,26.673462235513924],[-81.90652896105054,26.673386252447763],[-81.90650637524195,26.673314306365317],[-81.90645995412986,26.67323416348722],[-81.90643734622734,26.67319800337324],[-81.906454861997,26.673195274635933],[-81.90646701511879,26.67319338177724],[-81.90647200098726,26.673182721829438],[-81.90646747072196,26.673164459396663],[-81.90646261901779,26.673144896116],[-81.90645826600077,26.673127347750338],[-81.9064437294626,26.673077925740643],[-81.90643340991794,26.673042844191787],[-81.90642963477107,26.673030008642186],[-81.90632060274554,26.672869558699126],[-81.90628052537919,26.672815323449992],[-81.90608927798759,26.67264428310251],[-81.9060628682115,26.672638075662004],[-81.90603281117131,26.672649404084297],[-81.90602370665465,26.67265941864714],[-81.906013655353,26.67266744687896],[-81.90600257803257,26.672623073505903],[-81.90594589379468,26.672451096581113],[-81.90589062904482,26.672392084571932],[-81.9057952281072,26.672340007631902],[-81.90572824928475,26.67231858078142],[-81.90568400119086,26.672304425836995],[-81.90550874662014,26.672233639980593],[-81.90546660663847,26.672235017284905],[-81.90543549681203,26.672241399575096],[-81.90540423253269,26.672251108712736],[-81.9053712608215,26.67226993740645],[-81.90535310592159,26.67228030422785],[-81.90526833509874,26.672264256493666],[-81.90522468991891,26.67227437162603],[-81.90515708570948,26.672327801525125],[-81.905047770738,26.672366416343664],[-81.90503491652508,26.672404577498316],[-81.90499468209575,26.672455962283593],[-81.9049610834138,26.672495313616377],[-81.90492762952059,26.67253449715563],[-81.90486826256185,26.672577957874154],[-81.90476927145065,26.672622405624995],[-81.90473290078626,26.672638736221916],[-81.90456284081935,26.672680978056214],[-81.90436131176318,26.672668501386678],[-81.90422919939192,26.672676758666977],[-81.90414853965068,26.67267622409253],[-81.90409548675726,26.67267036205382],[-81.90404889135921,26.672656751085068],[-81.90403567357767,26.67264991043329],[-81.9039713007685,26.672649186382824],[-81.90394099990748,26.67265869096005],[-81.90391222049429,26.672659352053653],[-81.9038879971909,26.672645727278244],[-81.903876840055,26.672625642457387],[-81.90385849663006,26.672604204299244],[-81.90383878749368,26.67260117630097],[-81.90380167133031,26.6726006294758],[-81.90376988915115,26.672603462853292],[-81.90373958670891,26.672613648844052],[-81.90372442441581,26.672631328485085],[-81.90372667470683,26.672657864430935],[-81.90373924698622,26.672690415027766],[-81.90374789441638,26.67271530356258],[-81.90376524805536,26.672769277726314],[-81.90377758597126,26.67279499914408],[-81.90378548998076,26.67281147952174],[-81.90379431851304,26.672831290189443],[-81.9038120692083,26.672874281867596],[-81.9038145130269,26.672957587412117],[-81.90384392300106,26.67300658560959],[-81.90400169597477,26.673161816394508],[-81.90397068003598,26.673278830110412],[-81.90408278360789,26.67334183730676],[-81.90414878089005,26.673380397281782],[-81.90418836390799,26.67342169051721],[-81.90430928308403,26.67347111945995],[-81.90439118027955,26.673493183416394],[-81.90446639047839,26.67350183210792],[-81.90455483082064,26.67348091349314],[-81.90462087739897,26.67346049697645],[-81.9046467329042,26.67343988196708],[-81.90465767159745,26.67340515573833],[-81.9046483415333,26.673346687648298],[-81.90462410813765,26.67325794923151],[-81.90458661851818,26.673231444697908],[-81.90454508443396,26.673232276968864],[-81.90446203303385,26.673218637124435],[-81.9043740126549,26.673193989477227],[-81.90424450649428,26.673116011210173],[-81.90416710313478,26.67305112669031],[-81.90415773222642,26.673031040389546],[-81.90414861103815,26.673011489494087],[-81.90416487168451,26.672973066261804],[-81.90418533061025,26.67296139238816],[-81.9042090349122,26.672963817392432],[-81.90425191703478,26.672951122449607],[-81.90427777277849,26.672928959559492],[-81.90430919282964,26.672891839035817],[-81.90435992844752,26.672870725451812],[-81.90439954892615,26.67286817250794],[-81.9044877757006,26.672872703292434],[-81.90454578239763,26.672853656051682],[-81.90461316942697,26.672833755817102],[-81.90467252403741,26.672805424458097],[-81.90469341095488,26.67277552023018],[-81.90471965478345,26.672746823650424],[-81.90477193096298,26.67271659566776],[-81.90482344110842,26.672683273064585],[-81.90491034236133,26.67267112278472],[-81.9049863161979,26.672681490248678],[-81.90503335418016,26.6727358568785],[-81.905070264522,26.672769066270284],[-81.90510048568979,26.67279143916907],[-81.90514028193499,26.672807113093455],[-81.9051366184247,26.672840467766715],[-81.90512297486526,26.672907345289563],[-81.90509823645051,26.67296475803334],[-81.90507407768357,26.673018560788798],[-81.90502561232263,26.67307045455604],[-81.90496108362089,26.673106004244396],[-81.90493063401712,26.67312885196014],[-81.9049021018622,26.673144995591745],[-81.90489174736942,26.673170780246217],[-81.90488903594235,26.67320809070968],[-81.90490469891445,26.67324438090693],[-81.90491651540698,26.673305602650313],[-81.90490250442501,26.6733537366623],[-81.90488619444555,26.67340341798244],[-81.90491105564516,26.673427161979866],[-81.90492577146398,26.673452277442923],[-81.9049251708479,26.6734847730838],[-81.90495786637292,26.67352451445172],[-81.90499459303702,26.67354929893747],[-81.90505316042422,26.67354624310052],[-81.90510888648174,26.673510516001222],[-81.90518180302595,26.673514347450418],[-81.90531119806025,26.673498270121122],[-81.90540368022798,26.673449156677016],[-81.90542988333478,26.673469807389655],[-81.90549801092925,26.67348171640065],[-81.9055399261412,26.6734793370609],[-81.90560270284472,26.67348023895692],[-81.90561893410468,26.67352461126667],[-81.90551041543867,26.67352350656743],[-81.90544224743037,26.67356301011488],[-81.90541408031766,26.673603052938915],[-81.90535106526484,26.673660785022825],[-81.90524099642957,26.673681344918062],[-81.90508557246673,26.67369791927324],[-81.90492098118203,26.673690931461472],[-81.90475390331626,26.673680331421583],[-81.90456787863286,26.67367160848833],[-81.90441708754719,26.673638323300597],[-81.90427070954159,26.67359609713632],[-81.90409103885617,26.673540267038682],[-81.90395100575859,26.673460733454206],[-81.90383221072106,26.673390844772282],[-81.90370483752315,26.67327950944061],[-81.90363256667665,26.673189017946115],[-81.90354633923431,26.67308149404174],[-81.90351089432298,26.67301453279839],[-81.90351035211502,26.67299505267501],[-81.90348340590721,26.672947062473305],[-81.90344901525033,26.67287619821624],[-81.90344085444757,26.672794863652438],[-81.9034120338184,26.672698897554277],[-81.90337897221086,26.672641446709413],[-81.90333768080096,26.67258347307176],[-81.90330540687323,26.672498682308326],[-81.90329629888772,26.672406514169342],[-81.90333060788103,26.672345153989802],[-81.90335628580146,26.672309922503977],[-81.9033758324616,26.672279158288188],[-81.90339922049829,26.67223463936244],[-81.90341208885917,26.672179111577865],[-81.90342609987847,26.672132696242553],[-81.90345465009275,26.672093855416364],[-81.90348338812615,26.67205983004437],[-81.90351326639953,26.67203182302693],[-81.90352285985853,26.67200449000575],[-81.9035414499875,26.67194266148197],[-81.90352309638027,26.671888152271087],[-81.90348389245709,26.671827079681332],[-81.90343835014633,26.671794637530173],[-81.90334738423184,26.67184051404099],[-81.90332627177983,26.671857676920897],[-81.90329548578941,26.671900576965914],[-81.90322932977926,26.671931214661274],[-81.90320251356388,26.671956987983215],[-81.90313627269201,26.67200595452902],[-81.90305891590788,26.672002880790014],[-81.90294827588266,26.672031413836322],[-81.90287078449026,26.67201763063942],[-81.90274421433551,26.672058078593697],[-81.90265565364629,26.672121076685155],[-81.90260640373666,26.672147176603712],[-81.90256641096747,26.672167193962995],[-81.9024852285736,26.6722122516574],[-81.90244683422556,26.672235769431957],[-81.90241655243737,26.672254718428263],[-81.90231966680906,26.672311715568657],[-81.90221077482576,26.67235745536565],[-81.90211061521507,26.672401004184845],[-81.90203235519171,26.67241063506206],[-81.90190739335671,26.672465685521125],[-81.9017322753787,26.672513460588476],[-81.9015323054025,26.672524125267486],[-81.90143301649636,26.672561764936205],[-81.9014456828268,26.67286636174658],[-81.90031268834942,26.672857803570587],[-81.90035264064836,26.673753318074063],[-81.9024099013228,26.673773061547312],[-81.90265889384776,26.673775449134038],[-81.90270263784537,26.674451380997123],[-81.90271225919223,26.674600049079082],[-81.9027883558132,26.674600769991056],[-81.90279741684382,26.674737376338115],[-81.90379809442982,26.674746854151486],[-81.9039552323926,26.676276995336533],[-81.90398987751277,26.67661426603041],[-81.90403203711936,26.677024687847094],[-81.9030406953454,26.677106869029128],[-81.90308289059402,26.67751766749776],[-81.90407426280318,26.677435744195048],[-81.9040987622079,26.677674238207818],[-81.90424312065952,26.67907952783182],[-81.90324369340483,26.679161557797887],[-81.90327091997965,26.679426616126154],[-81.90328590307209,26.679572477047532],[-81.90428536078723,26.67949071217893],[-81.9042998099862,26.67963136287478]]]]},"properties":{"OBJECTID":3,"OWNER":null,"GlobalID":"{FF4D716A-CBFE-4E8F-B7C5-826E7D3F99F2}","created_user":"MPEREZ","created_date":1668006250000,"last_edited_user":"GIS","last_edited_date":1733252299000,"Shape.STArea()":3325643814.9088974,"Shape.STLength()":460349.29447503196}},{"type":"Feature","id":6,"geometry":{"type":"Polygon","coordinates":[[[-81.91642398783539,26.678791516776627],[-81.9162299765776,26.67665541157968],[-81.91572588926766,26.676660957718195],[-81.9158225756611,26.677741573304818],[-81.91487046535043,26.677842464510682],[-81.91488115778546,26.677965311914637],[-81.91442771792687,26.678013504178153],[-81.91457838476362,26.67967064474373],[-81.91642398783539,26.678791516776627]]]},"properties":{"OBJECTID":6,"OWNER":null,"GlobalID":"{425840B8-3144-4B51-AB5B-1ED2D96A47FD}","created_user":"MPEREZ","created_date":1692277703000,"last_edited_user":"MPEREZ","last_edited_date":1692277703000,"Shape.STArea()":386181.6797432709,"Shape.STLength()":3131.163722549427}}]}