{"type":"FeatureCollection","features":[{"type":"Feature","id":1,"geometry":{"type":"Point","coordinates":[-82.05507969055763,26.730188568817344]},"properties":{"OBJECTID":1,"ID":5,"ANGLE":-90,"HEIGHT":1.96000003,"GlobalID":"{72ED6EE1-0F73-486B-A9A7-7B8E9BD47CF8}","created_user":null,"created_date":null,"last_edited_user":"cgcartegraphsync","last_edited_date":1788443678000,"CANAL":"EASTOVER CANAL","LOCATION":"OLD BRNT ST RD/39TH","OBSERVED":1340668800000,"TYPE":"FIXED","DOWN_ELEV":null,"UP_ELEV":null,"WATER_UP":3.36999989,"WATER_DN":3.36999989,"WEIR_CREST":122,"BENCHMARKS":"BM313-35-01 EL=6.85 2\"brass COCC BM@SW COR/BRIDGE","COMMENTS":"TROPSTM Debbie6-26-12 10:45AM waterOvr weir@2.17","WEIR_ELEV":"2.0","BENCHMARKS_2":"","CARP_GRATE":"N","INFLATABLE_BAFFLE":"N","NO_OF_RISERS":null,"HT_OF_RISERS":null,"UPSTREAM_BASIN_NUMBER":11,"DOWNSTREAM_BASIN_NUMBER":0,"SILL_ELEV_FT_NGVD":1.95000005,"CREST_LENGTH_FT":122,"MIN_CREST_ELEV_FT_NGVD":1.95000005,"MAX_CREST_ELEV_FT_NGVD":1.95000005,"STRUCTURE_TYPE":"Fixed Weir","DATA_ORIGIN":"AIM","NOTES":"","cgID":"1005","SILL_ELEV_FT_NAVD":0.75,"INSTALLED":null,"REPLACED":null,"ADDRESS_NUMBER":null,"JURISDICTION":"","CURRENTINSPECTIONID":"30","CURRENTINSPECTIONDATE":1788393600000,"CURRENTINSPECTIONOCR":"Excellent","CURRENTINSPECTEDBY":"20191127","CURRENTINSPECTIONNOTES":"","CURRENTINSPECTIONOCI":87.5,"Retired":null,"LINK":null}},{"type":"Feature","id":2,"geometry":{"type":"Point","coordinates":[-82.03888799516707,26.694420889002014]},"properties":{"OBJECTID":2,"ID":11,"ANGLE":-90,"HEIGHT":2.30999994,"GlobalID":"{10C69E2C-0199-4EC6-A97A-923479E8093F}","created_user":null,"created_date":null,"last_edited_user":"cgcartegraphsync","last_edited_date":1788445298000,"CANAL":"GATOR SLOUGH CANAL","LOCATION":"BURNT STORE RD","OBSERVED":1340668800000,"TYPE":"FIXED","DOWN_ELEV":null,"UP_ELEV":null,"WATER_UP":4.19000006,"WATER_DN":3.43000007,"WEIR_CREST":178.69999695,"BENCHMARKS":"TBM298-74-01 EL=7.06CO/CITY DISC TOP/SEAWALL","COMMENTS":"TS Debbie 6/26/12 10:20AM=WtrUp/DwnElev","WEIR_ELEV":"3.75","BENCHMARKS_2":"TBM 397-10-01EL=7.04PK/City N end of seawall","CARP_GRATE":"N","INFLATABLE_BAFFLE":"Y","NO_OF_RISERS":null,"HT_OF_RISERS":null,"UPSTREAM_BASIN_NUMBER":6,"DOWNSTREAM_BASIN_NUMBER":0,"SILL_ELEV_FT_NGVD":2.37,"CREST_LENGTH_FT":178.7,"MIN_CREST_ELEV_FT_NGVD":2.66000009,"MAX_CREST_ELEV_FT_NGVD":3.53,"STRUCTURE_TYPE":"Obermeyer Fixed Weir","DATA_ORIGIN":"CC","NOTES":"MinHt.=.1' above sill,MaxHt.=1.2' abov sill(USGS)","cgID":"1011","SILL_ELEV_FT_NAVD":1.36000001,"INSTALLED":null,"REPLACED":null,"ADDRESS_NUMBER":null,"JURISDICTION":"","CURRENTINSPECTIONID":"31","CURRENTINSPECTIONDATE":1788393600000,"CURRENTINSPECTIONOCR":"Excellent","CURRENTINSPECTEDBY":"20191127","CURRENTINSPECTIONNOTES":"","CURRENTINSPECTIONOCI":100,"Retired":null,"LINK":null}},{"type":"Feature","id":3,"geometry":{"type":"Point","coordinates":[-82.03944222934659,26.66968338423662]},"properties":{"OBJECTID":3,"ID":14,"ANGLE":-90,"HEIGHT":2.38,"GlobalID":"{A31FC7B7-F300-4475-910E-2D51F27ECF40}","created_user":null,"created_date":null,"last_edited_user":"cgcartegraphsync","last_edited_date":1789666865000,"CANAL":"HERMOSA CANAL","LOCATION":"BURNT STORE NW 9 ST","OBSERVED":1340668800000,"TYPE":"MOVEABLE","DOWN_ELEV":2.66000009,"UP_ELEV":3.71000004,"WATER_UP":3.21000004,"WATER_DN":1.04999995,"WEIR_CREST":83.69999695,"BENCHMARKS":"TBM298-71-01 El=6.97 Pk/CityDisctop/seawalSEcorBr","COMMENTS":"TS Debbie 6/26/12 10AM WUE3.88WDE3.38","WEIR_ELEV":"2.38","BENCHMARKS_2":"TMB298-76-02El=7.02 Pk/CityDscTp/SeW/Nend/weirE/Br","CARP_GRATE":"N","INFLATABLE_BAFFLE":"Y","NO_OF_RISERS":null,"HT_OF_RISERS":null,"UPSTREAM_BASIN_NUMBER":9,"DOWNSTREAM_BASIN_NUMBER":0,"SILL_ELEV_FT_NGVD":2.58999991,"CREST_LENGTH_FT":83.69999695,"MIN_CREST_ELEV_FT_NGVD":2.8900001,"MAX_CREST_ELEV_FT_NGVD":3.84,"STRUCTURE_TYPE":"Obermeyer Moveable Weir","DATA_ORIGIN":"CC","NOTES":"MinHt.=.3' above sill,MaxHt.=1.25' abov sill(USGS)","cgID":"1014","SILL_ELEV_FT_NAVD":1.38999999,"INSTALLED":null,"REPLACED":null,"ADDRESS_NUMBER":null,"JURISDICTION":"","CURRENTINSPECTIONID":"41","CURRENTINSPECTIONDATE":1789603200000,"CURRENTINSPECTIONOCR":"Excellent","CURRENTINSPECTEDBY":"20191127","CURRENTINSPECTIONNOTES":"","CURRENTINSPECTIONOCI":100,"Retired":null,"LINK":null}},{"type":"Feature","id":4,"geometry":{"type":"Point","coordinates":[-82.03960629535703,26.650437214456858]},"properties":{"OBJECTID":4,"ID":15,"ANGLE":-90,"HEIGHT":2.26,"GlobalID":"{A2B632A4-A630-436C-B005-A969F13FD14D}","created_user":null,"created_date":null,"last_edited_user":"cgcartegraphsync","last_edited_date":1789669518000,"CANAL":"SHADROE CANAL","LOCATION":"BURNT STORE/EMBERS","OBSERVED":1340150400000,"TYPE":"MOVEABLE","DOWN_ELEV":2.6500001,"UP_ELEV":3.68000007,"WATER_UP":3.3599999,"WATER_DN":0.99000001,"WEIR_CREST":97.5,"BENCHMARKS":"TBM117-49-01 Elev=6.99Pk/City DiscTop/SeaW/SE c/Br","COMMENTS":"WtrE6/25/12TS Deb6/26/129:40amWU3.89WD3.39","WEIR_ELEV":"2.26","BENCHMARKS_2":"TBM298-76-01Elev=6.92Pk/CityDiscTop/SeawN/Weir@ E","CARP_GRATE":"N","INFLATABLE_BAFFLE":"Y","NO_OF_RISERS":null,"HT_OF_RISERS":null,"UPSTREAM_BASIN_NUMBER":10,"DOWNSTREAM_BASIN_NUMBER":0,"SILL_ELEV_FT_NGVD":2.3499999,"CREST_LENGTH_FT":98.01999664,"MIN_CREST_ELEV_FT_NGVD":2.45000005,"MAX_CREST_ELEV_FT_NGVD":3.84,"STRUCTURE_TYPE":"Obermeyer Moveable Weir","DATA_ORIGIN":"AIM","NOTES":"MinHt.=.1' above sill,MaxHt.=1.2' abov sill(USGS)","cgID":"1015","SILL_ELEV_FT_NAVD":1.14999998,"INSTALLED":null,"REPLACED":null,"ADDRESS_NUMBER":null,"JURISDICTION":"","CURRENTINSPECTIONID":"42","CURRENTINSPECTIONDATE":1789603200000,"CURRENTINSPECTIONOCR":"Excellent","CURRENTINSPECTEDBY":"20191127","CURRENTINSPECTIONNOTES":"","CURRENTINSPECTIONOCI":100,"Retired":null,"LINK":null}},{"type":"Feature","id":5,"geometry":{"type":"Point","coordinates":[-82.00661175556594,26.702559127470394]},"properties":{"OBJECTID":5,"ID":4,"ANGLE":-90,"HEIGHT":6.48,"GlobalID":"{470A0E3B-9065-484F-A46D-6222C2A38448}","created_user":null,"created_date":null,"last_edited_user":"cgcartegraphsync","last_edited_date":1788359764000,"CANAL":"GATOR SLOUGH CANAL","LOCATION":"CHIQUITA BL","OBSERVED":1338508800000,"TYPE":"FIXED","DOWN_ELEV":null,"UP_ELEV":null,"WATER_UP":5.44999981,"WATER_DN":3.57999992,"WEIR_CREST":250.5,"BENCHMARKS":"TBM 397-53-01 EL=10.62 PK/CITY SE COOR BRIDGE","COMMENTS":"","WEIR_ELEV":"6.48","BENCHMARKS_2":"BM 268-18-01 EL13.48 2\" BRASSCOCC DISC SWCOR BR.","CARP_GRATE":"N","INFLATABLE_BAFFLE":"N","NO_OF_RISERS":null,"HT_OF_RISERS":null,"UPSTREAM_BASIN_NUMBER":19,"DOWNSTREAM_BASIN_NUMBER":6,"SILL_ELEV_FT_NGVD":6.42000008,"CREST_LENGTH_FT":250.5,"MIN_CREST_ELEV_FT_NGVD":6.42000008,"MAX_CREST_ELEV_FT_NGVD":6.42000008,"STRUCTURE_TYPE":"Fixed Weir","DATA_ORIGIN":"CC","NOTES":"","cgID":"1004","SILL_ELEV_FT_NAVD":5.21999979,"INSTALLED":null,"REPLACED":null,"ADDRESS_NUMBER":null,"JURISDICTION":"","CURRENTINSPECTIONID":"27","CURRENTINSPECTIONDATE":1788307200000,"CURRENTINSPECTIONOCR":"Excellent","CURRENTINSPECTEDBY":"20191127","CURRENTINSPECTIONNOTES":"","CURRENTINSPECTIONOCI":100,"Retired":null,"LINK":null}},{"type":"Feature","id":6,"geometry":{"type":"Point","coordinates":[-81.95699120708264,26.725549757475584]},"properties":{"OBJECTID":6,"ID":19,"ANGLE":-120,"HEIGHT":10.36999988,"GlobalID":"{1BD84C7A-7A48-4055-9896-850644F5182A}","created_user":null,"created_date":null,"last_edited_user":"cgcartegraphsync","last_edited_date":1787810040000,"CANAL":"GATOR SLOUGH CANAL","LOCATION":"ANDALUSIA BL/NE36 LN","OBSERVED":1340150400000,"TYPE":"MOVEABLE","DOWN_ELEV":10.39999962,"UP_ELEV":11.94999981,"WATER_UP":10.57999992,"WATER_DN":8.46000004,"WEIR_CREST":92,"BENCHMARKS":"BM268-10-01EL19.21 2: BRASS COCC DISC SE COR BRDGE","COMMENTS":"","WEIR_ELEV":"10.4","BENCHMARKS_2":"TBM80-43-02EL=13.08PK/CITY DISC NE COR BRIDGE","CARP_GRATE":"N","INFLATABLE_BAFFLE":"N","NO_OF_RISERS":3,"HT_OF_RISERS":"16","UPSTREAM_BASIN_NUMBER":1,"DOWNSTREAM_BASIN_NUMBER":2,"SILL_ELEV_FT_NGVD":10.39999962,"CREST_LENGTH_FT":30,"MIN_CREST_ELEV_FT_NGVD":10.39999962,"MAX_CREST_ELEV_FT_NGVD":12,"STRUCTURE_TYPE":"Gated Moveable Weir","DATA_ORIGIN":null,"NOTES":"","cgID":"1019","SILL_ELEV_FT_NAVD":9.19999981,"INSTALLED":null,"REPLACED":null,"ADDRESS_NUMBER":null,"JURISDICTION":"","CURRENTINSPECTIONID":"23","CURRENTINSPECTIONDATE":1787702400000,"CURRENTINSPECTIONOCR":"Excellent","CURRENTINSPECTEDBY":"20191127","CURRENTINSPECTIONNOTES":"","CURRENTINSPECTIONOCI":98.75,"Retired":null,"LINK":null}},{"type":"Feature","id":7,"geometry":{"type":"Point","coordinates":[-81.97402042507755,26.689383372293875]},"properties":{"OBJECTID":7,"ID":21,"ANGLE":-90,"HEIGHT":8.37,"GlobalID":"{C57282C2-863B-452C-B7D7-DDBE7618F4A5}","created_user":null,"created_date":null,"last_edited_user":"cgcartegraphsync","last_edited_date":1787767935000,"CANAL":"FRONTIER CANAL","LOCATION":"SANTA BARBARA BL","OBSERVED":1339632000000,"TYPE":"MOVEABLE","DOWN_ELEV":null,"UP_ELEV":null,"WATER_UP":8.34000015,"WATER_DN":5.44999981,"WEIR_CREST":52,"BENCHMARKS":"TBM142-69-01EL=13.97 PK/CTY DISC NE COR WALK/BRIDG","COMMENTS":"","WEIR_ELEV":"E=8.37 W=8.17","BENCHMARKS_2":"BM311-33-01EL=13.99 2\" BRASSCOCC DISC N END/W WLK","CARP_GRATE":"Y","INFLATABLE_BAFFLE":"Y","NO_OF_RISERS":null,"HT_OF_RISERS":null,"UPSTREAM_BASIN_NUMBER":3,"DOWNSTREAM_BASIN_NUMBER":4,"SILL_ELEV_FT_NGVD":8.32999992,"CREST_LENGTH_FT":52,"MIN_CREST_ELEV_FT_NGVD":8.62999992,"MAX_CREST_ELEV_FT_NGVD":8.63,"STRUCTURE_TYPE":"Obermeyer Moveable Weir","DATA_ORIGIN":"CC","NOTES":"MinHt.=.3' above sill,MaxHt.=1.5' abov sill(USGS)","cgID":"1021","SILL_ELEV_FT_NAVD":7.13000011,"INSTALLED":null,"REPLACED":null,"ADDRESS_NUMBER":null,"JURISDICTION":"","CURRENTINSPECTIONID":"22","CURRENTINSPECTIONDATE":1787702400000,"CURRENTINSPECTIONOCR":"Excellent","CURRENTINSPECTEDBY":"20191127","CURRENTINSPECTIONNOTES":"Rust forming on lock bars for carp grates.\nWest side electrical box has graffiti on it.","CURRENTINSPECTIONOCI":96.25,"Retired":null,"LINK":null}},{"type":"Feature","id":8,"geometry":{"type":"Point","coordinates":[-82.00644207867977,26.68463226468788]},"properties":{"OBJECTID":8,"ID":16,"ANGLE":-90,"HEIGHT":7.3,"GlobalID":"{F5A9F9FC-E273-47C1-BC6C-59BB96158153}","created_user":null,"created_date":null,"last_edited_user":"cgcartegraphsync","last_edited_date":1789479299000,"CANAL":"HORSESHOE CANAL","LOCATION":"CHIQUITA/NW 17TH ST","OBSERVED":1339718400000,"TYPE":"FIXED","DOWN_ELEV":null,"UP_ELEV":null,"WATER_UP":5.36999989,"WATER_DN":2.45000005,"WEIR_CREST":105,"BENCHMARKS":"BM268-21-01Elev12.19 2\" BrassCoCC BM Nsd/WconSTW","COMMENTS":"Water elev. measured on 6/21/12","WEIR_ELEV":"Concrete=6.29 Board=7.31","BENCHMARKS_2":"TBM397-33-01El=10.76Pk/City DiscTp/SW@SEcor/bridge","CARP_GRATE":"N","INFLATABLE_BAFFLE":"N","NO_OF_RISERS":12,"HT_OF_RISERS":"12","UPSTREAM_BASIN_NUMBER":4,"DOWNSTREAM_BASIN_NUMBER":7,"SILL_ELEV_FT_NGVD":6.32999992,"CREST_LENGTH_FT":112.5,"MIN_CREST_ELEV_FT_NGVD":6.32999992,"MAX_CREST_ELEV_FT_NGVD":7.32000017,"STRUCTURE_TYPE":"Fixed Weir with Risers","DATA_ORIGIN":"AIM","NOTES":"","cgID":"1016","SILL_ELEV_FT_NAVD":5.13000011,"INSTALLED":null,"REPLACED":null,"ADDRESS_NUMBER":null,"JURISDICTION":"","CURRENTINSPECTIONID":"33","CURRENTINSPECTIONDATE":1789430400000,"CURRENTINSPECTIONOCR":"Excellent","CURRENTINSPECTEDBY":"20191127","CURRENTINSPECTIONNOTES":"","CURRENTINSPECTIONOCI":100,"Retired":null,"LINK":null}},{"type":"Feature","id":9,"geometry":{"type":"Point","coordinates":[-82.03905328522632,26.678503969790786]},"properties":{"OBJECTID":9,"ID":13,"ANGLE":-90,"HEIGHT":2.48,"GlobalID":"{B83F2000-C0DB-45C8-B702-513D5944590D}","created_user":null,"created_date":null,"last_edited_user":"cgcartegraphsync","last_edited_date":1789655125000,"CANAL":"HORSESHOE CANAL","LOCATION":"DIPLOMAT PKWY/NW14TH","OBSERVED":1340582400000,"TYPE":"MOVEABLE","DOWN_ELEV":2.66000009,"UP_ELEV":3.80999994,"WATER_UP":3.43000007,"WATER_DN":0.81,"WEIR_CREST":101.19999695,"BENCHMARKS":"BM313-39-01EL=9.462\"brss COCC BM E  Sidde/Bridge","COMMENTS":"TSD26/12 10:10amWaterUp3.95/Dn3.35","WEIR_ELEV":"2.48","BENCHMARKS_2":"TBM397-37-01Elev=7.06 PK/CtyDisc@N/seawS/weirE/Br","CARP_GRATE":"N","INFLATABLE_BAFFLE":"Y","NO_OF_RISERS":null,"HT_OF_RISERS":null,"UPSTREAM_BASIN_NUMBER":7,"DOWNSTREAM_BASIN_NUMBER":0,"SILL_ELEV_FT_NGVD":2.47000003,"CREST_LENGTH_FT":101.19999695,"MIN_CREST_ELEV_FT_NGVD":2.56999993,"MAX_CREST_ELEV_FT_NGVD":3.6700001,"STRUCTURE_TYPE":"Obermeyer Moveable Weir","DATA_ORIGIN":"CC","NOTES":"MinHt.=.1' above sill,MaxHt.=1.2' abov sill(USGS)","cgID":"1013","SILL_ELEV_FT_NAVD":1.26999998,"INSTALLED":null,"REPLACED":null,"ADDRESS_NUMBER":null,"JURISDICTION":"","CURRENTINSPECTIONID":"40","CURRENTINSPECTIONDATE":1789603200000,"CURRENTINSPECTIONOCR":"Excellent","CURRENTINSPECTEDBY":"20191127","CURRENTINSPECTIONNOTES":"","CURRENTINSPECTIONOCI":100,"Retired":null,"LINK":null}},{"type":"Feature","id":10,"geometry":{"type":"Point","coordinates":[-82.03888614566453,26.689575520680734]},"properties":{"OBJECTID":10,"ID":12,"ANGLE":-90,"HEIGHT":2.43,"GlobalID":"{C17B268C-CFF2-4806-A0DA-14C07BD84E63}","created_user":null,"created_date":null,"last_edited_user":"cgcartegraphsync","last_edited_date":1790101975000,"CANAL":"ARROZ CANAL","LOCATION":"BURNT STORE RD","OBSERVED":1340668800000,"TYPE":null,"DOWN_ELEV":null,"UP_ELEV":null,"WATER_UP":null,"WATER_DN":1.30999994,"WEIR_CREST":36.20000076,"BENCHMARKS":"TMB397-10-02 EL=7.04 PK/CITY DISC S END OF SEAWALL","COMMENTS":"TS DEBBIE 6/26/12 10:15am Water Up&Dn3.39ovr weir","WEIR_ELEV":"2.43","BENCHMARKS_2":"TBM397-10-01 EL=9.30 PK/CITY DISC NW COR BRIDGE","CARP_GRATE":"N","INFLATABLE_BAFFLE":"N","NO_OF_RISERS":null,"HT_OF_RISERS":null,"UPSTREAM_BASIN_NUMBER":8,"DOWNSTREAM_BASIN_NUMBER":0,"SILL_ELEV_FT_NGVD":2.33999991,"CREST_LENGTH_FT":36.20000076,"MIN_CREST_ELEV_FT_NGVD":2.33999991,"MAX_CREST_ELEV_FT_NGVD":2.33999991,"STRUCTURE_TYPE":"Not included in model","DATA_ORIGIN":"CC","NOTES":"Not included in model","cgID":"1012","SILL_ELEV_FT_NAVD":1.13999999,"INSTALLED":null,"REPLACED":null,"ADDRESS_NUMBER":null,"JURISDICTION":"","CURRENTINSPECTIONID":"43","CURRENTINSPECTIONDATE":1790035200000,"CURRENTINSPECTIONOCR":"Excellent","CURRENTINSPECTEDBY":"20191127","CURRENTINSPECTIONNOTES":"","CURRENTINSPECTIONOCI":100,"Retired":null,"LINK":null}},{"type":"Feature","id":11,"geometry":{"type":"Point","coordinates":[-82.0071675920373,26.64947846797029]},"properties":{"OBJECTID":11,"ID":18,"ANGLE":-90,"HEIGHT":4.84,"GlobalID":"{B9F6A836-7A45-4C2B-A113-9ECB494217D3}","created_user":null,"created_date":null,"last_edited_user":"cgcartegraphsync","last_edited_date":1789482767000,"CANAL":"SHADROE CANAL","LOCATION":"CHIQUITA BL/SW 1ST","OBSERVED":1339977600000,"TYPE":"MOVEABLE","DOWN_ELEV":null,"UP_ELEV":null,"WATER_UP":5.07999992,"WATER_DN":3.48000002,"WEIR_CREST":39,"BENCHMARKS":"BM268-25-01EL=10.62 2\" BR COCC BM@SW cor/bridge","COMMENTS":"Water elev. measured on 6/18/2012","WEIR_ELEV":"E=4.84 W=4.70","BENCHMARKS_2":"TBM236-76-01Elev=10.63 PK/CityDiscOnConWalk@SE Br","CARP_GRATE":"Y","INFLATABLE_BAFFLE":"N","NO_OF_RISERS":null,"HT_OF_RISERS":null,"UPSTREAM_BASIN_NUMBER":5,"DOWNSTREAM_BASIN_NUMBER":10,"SILL_ELEV_FT_NGVD":4.98999977,"CREST_LENGTH_FT":39,"MIN_CREST_ELEV_FT_NGVD":4.98999977,"MAX_CREST_ELEV_FT_NGVD":4.98999977,"STRUCTURE_TYPE":"Fixed Moveable Weir","DATA_ORIGIN":"AIM","NOTES":"","cgID":"1018","SILL_ELEV_FT_NAVD":3.78999996,"INSTALLED":null,"REPLACED":null,"ADDRESS_NUMBER":null,"JURISDICTION":"","CURRENTINSPECTIONID":"35","CURRENTINSPECTIONDATE":1789430400000,"CURRENTINSPECTIONOCR":"Excellent","CURRENTINSPECTEDBY":"20191127","CURRENTINSPECTIONNOTES":"","CURRENTINSPECTIONOCI":90,"Retired":null,"LINK":null}},{"type":"Feature","id":12,"geometry":{"type":"Point","coordinates":[-82.00689580460929,26.668545932932744]},"properties":{"OBJECTID":12,"ID":17,"ANGLE":-90,"HEIGHT":7.35,"GlobalID":"{23B6125D-5A62-4827-9514-7C19420C339A}","created_user":null,"created_date":null,"last_edited_user":"cgcartegraphsync","last_edited_date":1789480332000,"CANAL":"HERMOSA CANAL","LOCATION":"CHIQUITA/TROPICANA","OBSERVED":1339977600000,"TYPE":"FIXED","DOWN_ELEV":null,"UP_ELEV":null,"WATER_UP":5.38000011,"WATER_DN":3.20000005,"WEIR_CREST":84.69999695,"BENCHMARKS":"BM268-23-01EL11.23 2\" brass CoCCBM @S&W side bridg","COMMENTS":"Water elev. measured on 6/21/12","WEIR_ELEV":"Concrete=6.35 Board=7.35","BENCHMARKS_2":"TBM125-30-01E.10.09Pk/City DskTp/Seaw NE Cor/brdge","CARP_GRATE":"N","INFLATABLE_BAFFLE":"N","NO_OF_RISERS":8,"HT_OF_RISERS":"12","UPSTREAM_BASIN_NUMBER":4,"DOWNSTREAM_BASIN_NUMBER":9,"SILL_ELEV_FT_NGVD":6.4000001,"CREST_LENGTH_FT":82,"MIN_CREST_ELEV_FT_NGVD":6.4000001,"MAX_CREST_ELEV_FT_NGVD":7.42000008,"STRUCTURE_TYPE":"Fixed Weir with Risers","DATA_ORIGIN":"AIM","NOTES":"","cgID":"1017","SILL_ELEV_FT_NAVD":5.19999981,"INSTALLED":null,"REPLACED":null,"ADDRESS_NUMBER":null,"JURISDICTION":"","CURRENTINSPECTIONID":"34","CURRENTINSPECTIONDATE":1789430400000,"CURRENTINSPECTIONOCR":"Excellent","CURRENTINSPECTEDBY":"20191127","CURRENTINSPECTIONNOTES":"","CURRENTINSPECTIONOCI":100,"Retired":null,"LINK":null}},{"type":"Feature","id":13,"geometry":{"type":"Point","coordinates":[-81.93060986085771,26.652596096353903]},"properties":{"OBJECTID":13,"ID":6,"ANGLE":180,"HEIGHT":6.1,"GlobalID":"{A06B0FDE-FDDF-4487-A6FB-94030070E316}","created_user":null,"created_date":null,"last_edited_user":"cgcartegraphsync","last_edited_date":1788498378000,"CANAL":"MEADE CANAL","LOCATION":"HANCOCK BR PKWY","OBSERVED":1340928000000,"TYPE":"MOVEABLE","DOWN_ELEV":null,"UP_ELEV":null,"WATER_UP":7.3499999,"WATER_DN":null,"WEIR_CREST":15,"BENCHMARKS":"TBM 398-24-02 EL=11.54 PK/CITY NE COR BRIDGE","COMMENTS":"","WEIR_ELEV":"4.9","BENCHMARKS_2":"TBM 125-33-01 EL=11.52 PK/CITY DISC SW COR BRIDGE","CARP_GRATE":"Y","INFLATABLE_BAFFLE":"Y","NO_OF_RISERS":2,"HT_OF_RISERS":"10","UPSTREAM_BASIN_NUMBER":12,"DOWNSTREAM_BASIN_NUMBER":13,"SILL_ELEV_FT_NGVD":6.07999992,"CREST_LENGTH_FT":16,"MIN_CREST_ELEV_FT_NGVD":6.38000011,"MAX_CREST_ELEV_FT_NGVD":7.57999992,"STRUCTURE_TYPE":"Obermeyer Moveable Weir","DATA_ORIGIN":"AIM","NOTES":"MinHt.=.3' above sill,MaxHt.=1.5' abov sill(USGS)","cgID":"1006","SILL_ELEV_FT_NAVD":4.88000011,"INSTALLED":null,"REPLACED":null,"ADDRESS_NUMBER":null,"JURISDICTION":"","CURRENTINSPECTIONID":"32","CURRENTINSPECTIONDATE":1788393600000,"CURRENTINSPECTIONOCR":"Excellent","CURRENTINSPECTEDBY":"20191127","CURRENTINSPECTIONNOTES":"","CURRENTINSPECTIONOCI":98.75,"Retired":null,"LINK":null}},{"type":"Feature","id":14,"geometry":{"type":"Point","coordinates":[-81.9306203965941,26.63630668753636]},"properties":{"OBJECTID":14,"ID":3,"ANGLE":180,"HEIGHT":3.97,"GlobalID":"{05F95F8C-A602-4A0F-9F13-77F80F710234}","created_user":null,"created_date":null,"last_edited_user":"cgcartegraphsync","last_edited_date":1787749747000,"CANAL":"MEADE CANAL","LOCATION":"VISCAYA PK","OBSERVED":1340841600000,"TYPE":"FIXED","DOWN_ELEV":null,"UP_ELEV":null,"WATER_UP":5.48000002,"WATER_DN":0.60000002,"WEIR_CREST":24,"BENCHMARKS":"TBM 80-42-01EL=4.52 PK/CITY DISC SE COE BRIDGE","COMMENTS":"Carp GrateRev3/30/14","WEIR_ELEV":"3.97","BENCHMARKS_2":"TBM 396-11-01 EL 7.25 PK /CITY DISC NE COR INLET","CARP_GRATE":"Y","INFLATABLE_BAFFLE":"N","NO_OF_RISERS":3,"HT_OF_RISERS":"12","UPSTREAM_BASIN_NUMBER":13,"DOWNSTREAM_BASIN_NUMBER":0,"SILL_ELEV_FT_NGVD":3.98000002,"CREST_LENGTH_FT":25.5,"MIN_CREST_ELEV_FT_NGVD":3.98000002,"MAX_CREST_ELEV_FT_NGVD":5.11999989,"STRUCTURE_TYPE":"Fixed Weir with Risers","DATA_ORIGIN":"AIM","NOTES":"","cgID":"1003","SILL_ELEV_FT_NAVD":2.77999997,"INSTALLED":null,"REPLACED":null,"ADDRESS_NUMBER":null,"JURISDICTION":"","CURRENTINSPECTIONID":"20","CURRENTINSPECTIONDATE":1787702400000,"CURRENTINSPECTIONOCR":"Excellent","CURRENTINSPECTEDBY":"20191127","CURRENTINSPECTIONNOTES":"Overall condition is excellent","CURRENTINSPECTIONOCI":100,"Retired":null,"LINK":null}},{"type":"Feature","id":15,"geometry":{"type":"Point","coordinates":[-81.95801775137471,26.636243903882946]},"properties":{"OBJECTID":15,"ID":2,"ANGLE":180,"HEIGHT":6.2,"GlobalID":"{629280A6-6F21-4FDB-B653-4E831D3520ED}","created_user":null,"created_date":null,"last_edited_user":"cgcartegraphsync","last_edited_date":1787747113000,"CANAL":"MACKINAC CANAL","LOCATION":"SE 9TH ST","OBSERVED":1340755200000,"TYPE":"FIXED","DOWN_ELEV":null,"UP_ELEV":null,"WATER_UP":7.30000019,"WATER_DN":null,"WEIR_CREST":21.29999924,"BENCHMARKS":"TBM 397-15-01 EL=9.02 NW COR.BRIDGE","COMMENTS":"Carp GrateRev2/28/14","WEIR_ELEV":"6.2","BENCHMARKS_2":"TBM 397-30-.1 EL=11.33 PK/CITY DISC SE COR BRIDGE","CARP_GRATE":"Y","INFLATABLE_BAFFLE":"N","NO_OF_RISERS":3,"HT_OF_RISERS":"12","UPSTREAM_BASIN_NUMBER":14,"DOWNSTREAM_BASIN_NUMBER":0,"SILL_ELEV_FT_NGVD":5.96000004,"CREST_LENGTH_FT":25.47,"MIN_CREST_ELEV_FT_NGVD":5.96000004,"MAX_CREST_ELEV_FT_NGVD":7.27,"STRUCTURE_TYPE":"Fixed Weir with Risers","DATA_ORIGIN":"CC","NOTES":"","cgID":"1002","SILL_ELEV_FT_NAVD":4.76000023,"INSTALLED":null,"REPLACED":null,"ADDRESS_NUMBER":null,"JURISDICTION":"","CURRENTINSPECTIONID":"19","CURRENTINSPECTIONDATE":1787702400000,"CURRENTINSPECTIONOCR":"Excellent","CURRENTINSPECTEDBY":"20191127","CURRENTINSPECTIONNOTES":"North side of weir has 2 holes on side embankments. 1 on west side and 1 on east side. A few pales of dirt and 1 piece of Bahia on each side will correct issue.\n\nSouth side of weir has overgrown vegetation that needs to be cut back during NON rainy season. There are 2 cracks in side concrete embankment. Hydraulic concrete needed fix cracks.","CURRENTINSPECTIONOCI":81.25,"Retired":null,"LINK":null}},{"type":"Feature","id":16,"geometry":{"type":"Point","coordinates":[-81.9651229943893,26.603502123995]},"properties":{"OBJECTID":16,"ID":1,"ANGLE":-180,"HEIGHT":3.95,"GlobalID":"{CF5C9E03-C81E-4B49-93F0-794C62057F2E}","created_user":null,"created_date":null,"last_edited_user":"cgcartegraphsync","last_edited_date":1787600863000,"CANAL":"SAN CARLOS CANAL","LOCATION":"SE 26TH TER","OBSERVED":1340755200000,"TYPE":"MOVEABLE","DOWN_ELEV":null,"UP_ELEV":null,"WATER_UP":5.13000011,"WATER_DN":null,"WEIR_CREST":24,"BENCHMARKS":"ACOE LEE2 EL 10.62 NW COR.BRIDGE","COMMENTS":"Weir #1 has Carp Grates and Inflatable Baffels.","WEIR_ELEV":"3.95","BENCHMARKS_2":"TBM 397-30-01 EL=11.22 PK/CITY DISC SE COR.BRIDGE","CARP_GRATE":"Y","INFLATABLE_BAFFLE":"Y","NO_OF_RISERS":3,"HT_OF_RISERS":"12","UPSTREAM_BASIN_NUMBER":15,"DOWNSTREAM_BASIN_NUMBER":0,"SILL_ELEV_FT_NGVD":3.8499999,"CREST_LENGTH_FT":24,"MIN_CREST_ELEV_FT_NGVD":4.1500001,"MAX_CREST_ELEV_FT_NGVD":5.13000011,"STRUCTURE_TYPE":"Obermeyer Moveable Weir","DATA_ORIGIN":"AIM","NOTES":"MinHt.=.3' above sill,MaxHt.=1.5' abov sill(USGS)","cgID":"1001","SILL_ELEV_FT_NAVD":2.6500001,"INSTALLED":null,"REPLACED":null,"ADDRESS_NUMBER":null,"JURISDICTION":"","CURRENTINSPECTIONID":"18","CURRENTINSPECTIONDATE":1787529600000,"CURRENTINSPECTIONOCR":"Excellent","CURRENTINSPECTEDBY":"20191127","CURRENTINSPECTIONNOTES":"Weir condition is good. Light surface rust on carp grate arms. Light flow of water.","CURRENTINSPECTIONOCI":100,"Retired":null,"LINK":"\\\\fusion\\DFSshared\\PW\\Weirs"}},{"type":"Feature","id":17,"geometry":{"type":"Point","coordinates":[-81.98556514269055,26.611080455650274]},"properties":{"OBJECTID":17,"ID":8,"ANGLE":180,"HEIGHT":6,"GlobalID":"{F4F8BF20-E6BE-4829-B6C8-2EFDC77330AC}","created_user":null,"created_date":null,"last_edited_user":"cgcartegraphsync","last_edited_date":1787756744000,"CANAL":"CHALLENGER CANAL","LOCATION":"SW 22ND ST@SW 5TH PL","OBSERVED":1339545600000,"TYPE":"FIXED","DOWN_ELEV":null,"UP_ELEV":null,"WATER_UP":7.1500001,"WATER_DN":null,"WEIR_CREST":26,"BENCHMARKS":"TBM397-74-01 EL=11.88 PK/CITY DISC NW CORNER/WALK","COMMENTS":"BYPASS 36\" RCP W/SLUICE GATE InvsN=2.54S=2.08","WEIR_ELEV":"6.98","BENCHMARKS_2":"TBM397-74-02 EL=11.87 PK/CITY SE CORNER/WALK","CARP_GRATE":"Y","INFLATABLE_BAFFLE":"N","NO_OF_RISERS":3,"HT_OF_RISERS":"10","UPSTREAM_BASIN_NUMBER":14,"DOWNSTREAM_BASIN_NUMBER":16,"SILL_ELEV_FT_NGVD":6.13000011,"CREST_LENGTH_FT":26.29000092,"MIN_CREST_ELEV_FT_NGVD":6.13000011,"MAX_CREST_ELEV_FT_NGVD":6.98000002,"STRUCTURE_TYPE":"Fixed Weir with Risers","DATA_ORIGIN":"CC","NOTES":"","cgID":"1008","SILL_ELEV_FT_NAVD":4.92999983,"INSTALLED":null,"REPLACED":null,"ADDRESS_NUMBER":null,"JURISDICTION":"","CURRENTINSPECTIONID":"21","CURRENTINSPECTIONDATE":1787702400000,"CURRENTINSPECTIONOCR":"Excellent","CURRENTINSPECTEDBY":"20191127","CURRENTINSPECTIONNOTES":"Overall condition is excellent. No issues found.","CURRENTINSPECTIONOCI":100,"Retired":null,"LINK":null}},{"type":"Feature","id":18,"geometry":{"type":"Point","coordinates":[-82.00716269489577,26.599875705427916]},"properties":{"OBJECTID":18,"ID":20,"ANGLE":-90,"HEIGHT":3.02,"GlobalID":"{C8C6FA81-FA4E-4853-8A32-D4B403324A08}","created_user":null,"created_date":null,"last_edited_user":"cgcartegraphsync","last_edited_date":1788437223000,"CANAL":"SHAUGHNESSEY CANAL","LOCATION":"CHIQUITA/SW 28TH ST","OBSERVED":1391126400000,"TYPE":"FIXED","DOWN_ELEV":null,"UP_ELEV":null,"WATER_UP":3.23000002,"WATER_DN":1.63,"WEIR_CREST":39,"BENCHMARKS":"TBM380-04-01ELEV=5.99PK/CtyDisc@top/SWbyS END/WEIR","COMMENTS":"Water elevations measured on 6/12/12","WEIR_ELEV":"1.82","BENCHMARKS_2":"TBM360-03-01Elev-4.65Pk/CtyDisc top/SeawNChBl","CARP_GRATE":"Y","INFLATABLE_BAFFLE":"N","NO_OF_RISERS":null,"HT_OF_RISERS":null,"UPSTREAM_BASIN_NUMBER":18,"DOWNSTREAM_BASIN_NUMBER":0,"SILL_ELEV_FT_NGVD":3.02999997,"CREST_LENGTH_FT":39,"MIN_CREST_ELEV_FT_NGVD":3.02999997,"MAX_CREST_ELEV_FT_NGVD":3.02999997,"STRUCTURE_TYPE":"Fixed Weir with Trash Grate","DATA_ORIGIN":"CC","NOTES":"","cgID":"1020","SILL_ELEV_FT_NAVD":1.83000004,"INSTALLED":null,"REPLACED":null,"ADDRESS_NUMBER":null,"JURISDICTION":"","CURRENTINSPECTIONID":"28","CURRENTINSPECTIONDATE":1788393600000,"CURRENTINSPECTIONOCR":"Excellent","CURRENTINSPECTEDBY":"20191127","CURRENTINSPECTIONNOTES":"","CURRENTINSPECTIONOCI":100,"Retired":null,"LINK":null}},{"type":"Feature","id":20,"geometry":{"type":"Point","coordinates":[-81.98551042390157,26.578101289179763]},"properties":{"OBJECTID":20,"ID":7,"ANGLE":180,"HEIGHT":3.81999993,"GlobalID":"{ABBBBD55-2EC5-499A-A6D4-E30E56274090}","created_user":null,"created_date":null,"last_edited_user":"cgcartegraphsync","last_edited_date":1788270108000,"CANAL":"COURTNEY CANAL","LOCATION":"MOHAWK PK","OBSERVED":1336608000000,"TYPE":"MOVEABLE","DOWN_ELEV":null,"UP_ELEV":null,"WATER_UP":3.75999999,"WATER_DN":1.04999995,"WEIR_CREST":21.29999924,"BENCHMARKS":"TBM397-02-02 Elev=6.90 Pk/CityDiscTop/sw NEcor/Br","COMMENTS":"Water elevs measured 6/12/2012","WEIR_ELEV":"N=3.83 S=3.87","BENCHMARKS_2":"TBM397-02-01Elev=8.88 Pk/City Disc onSEcor/Sidwlk","CARP_GRATE":"Y","INFLATABLE_BAFFLE":"Y","NO_OF_RISERS":3,"HT_OF_RISERS":"6","UPSTREAM_BASIN_NUMBER":16,"DOWNSTREAM_BASIN_NUMBER":0,"SILL_ELEV_FT_NGVD":3.8900001,"CREST_LENGTH_FT":24,"MIN_CREST_ELEV_FT_NGVD":4.19000006,"MAX_CREST_ELEV_FT_NGVD":5.38999987,"STRUCTURE_TYPE":"Obermeyer Moveable Weir","DATA_ORIGIN":"AIM","NOTES":"MinHt.=.3' above sill,MaxHt.=1.5' abov sill(USGS)","cgID":"1007","SILL_ELEV_FT_NAVD":2.69000006,"INSTALLED":null,"REPLACED":null,"ADDRESS_NUMBER":null,"JURISDICTION":"","CURRENTINSPECTIONID":"25","CURRENTINSPECTIONDATE":1788220800000,"CURRENTINSPECTIONOCR":"Excellent","CURRENTINSPECTEDBY":"20191127","CURRENTINSPECTIONNOTES":"Southwest and Southeast side of weir has beginning signs of concrete erosion where seawall meets bridge. Needs hydraulic concrete to fill in.","CURRENTINSPECTIONOCI":91.25,"Retired":null,"LINK":null}},{"type":"Feature","id":21,"geometry":{"type":"Point","coordinates":[-82.05474048105721,26.74346597869942]},"properties":{"OBJECTID":21,"ID":24,"ANGLE":-90,"HEIGHT":1.97000002,"GlobalID":"{D11CE06F-3770-4381-9F95-5862E26C16CA}","created_user":null,"created_date":null,"last_edited_user":"cgcartegraphsync","last_edited_date":1788442652000,"CANAL":"DEWBERRY CANAL","LOCATION":"OLD BURNT STORE/NW45","OBSERVED":1340668800000,"TYPE":"FIXED","DOWN_ELEV":null,"UP_ELEV":null,"WATER_UP":3.3599999,"WATER_DN":3.3599999,"WEIR_CREST":10,"BENCHMARKS":"TBM399-25-01ELEV=6.35PK/CITYDISC TOP/HW E&S OF RDS","COMMENTS":"TrpStrmDebbie 6/26/12 10:55amWaterEL=3.36/OverWeir","WEIR_ELEV":"2","BENCHMARKS_2":"","CARP_GRATE":"N","INFLATABLE_BAFFLE":"N","NO_OF_RISERS":null,"HT_OF_RISERS":null,"UPSTREAM_BASIN_NUMBER":11,"DOWNSTREAM_BASIN_NUMBER":0,"SILL_ELEV_FT_NGVD":1.97000003,"CREST_LENGTH_FT":10,"MIN_CREST_ELEV_FT_NGVD":2,"MAX_CREST_ELEV_FT_NGVD":2,"STRUCTURE_TYPE":"Fixed Weir","DATA_ORIGIN":"CC","NOTES":"","cgID":"1024","SILL_ELEV_FT_NAVD":0.76999998,"INSTALLED":null,"REPLACED":null,"ADDRESS_NUMBER":null,"JURISDICTION":"","CURRENTINSPECTIONID":"29","CURRENTINSPECTIONDATE":1788393600000,"CURRENTINSPECTIONOCR":"Excellent","CURRENTINSPECTEDBY":"20191127","CURRENTINSPECTIONNOTES":"","CURRENTINSPECTIONOCI":100,"Retired":null,"LINK":null}},{"type":"Feature","id":23,"geometry":{"type":"Point","coordinates":[-81.9825797685524,26.713175593807346]},"properties":{"OBJECTID":23,"ID":58,"ANGLE":150,"HEIGHT":8.35000038,"GlobalID":"{9D192F0F-747A-4E79-9A52-BA545B52738F}","created_user":null,"created_date":null,"last_edited_user":"cgcartegraphsync","last_edited_date":1787771380000,"CANAL":"SYRACUSE CANAL","LOCATION":"WILMINGTON/SLOUGH","OBSERVED":1340236800000,"TYPE":"FIXED","DOWN_ELEV":null,"UP_ELEV":null,"WATER_UP":8.38000011,"WATER_DN":5.55999994,"WEIR_CREST":10,"BENCHMARKS":"TBM397-64-01EL=14.09BRASS GACDisc E end HW","COMMENTS":"4 open culverts after Weir 20","WEIR_ELEV":"7.71","BENCHMARKS_2":"TBM142-67-01EL=10.45 PK/CityDisc top E/Weir&N/Rd","CARP_GRATE":"N","INFLATABLE_BAFFLE":"N","NO_OF_RISERS":null,"HT_OF_RISERS":null,"UPSTREAM_BASIN_NUMBER":2,"DOWNSTREAM_BASIN_NUMBER":4,"SILL_ELEV_FT_NGVD":10.5,"CREST_LENGTH_FT":50,"MIN_CREST_ELEV_FT_NGVD":10.5,"MAX_CREST_ELEV_FT_NGVD":10.5,"STRUCTURE_TYPE":"Fixed Weir","DATA_ORIGIN":"CC","NOTES":"","cgID":"1058","SILL_ELEV_FT_NAVD":9.30000019,"INSTALLED":null,"REPLACED":null,"ADDRESS_NUMBER":null,"JURISDICTION":"","CURRENTINSPECTIONID":"24","CURRENTINSPECTIONDATE":1787702400000,"CURRENTINSPECTIONOCR":"Excellent","CURRENTINSPECTEDBY":"20191127","CURRENTINSPECTIONNOTES":"Automated weir clean and flowing.","CURRENTINSPECTIONOCI":100,"Retired":null,"LINK":null}},{"type":"Feature","id":24,"geometry":{"type":"Point","coordinates":[-82.00552965284237,26.622719353450623]},"properties":{"OBJECTID":24,"ID":10,"ANGLE":180,"HEIGHT":6.01,"GlobalID":"{7094F919-878A-4A06-BBF0-884C78F7267F}","created_user":null,"created_date":null,"last_edited_user":"cgcartegraphsync","last_edited_date":1789499130000,"CANAL":"TICONDEROGA CANAL","LOCATION":"TRAFALGER/SW 15TH AV","OBSERVED":1339459200000,"TYPE":"MOVEABLE","DOWN_ELEV":null,"UP_ELEV":null,"WATER_UP":6.25,"WATER_DN":null,"WEIR_CREST":20,"BENCHMARKS":"TBM 340-17-01 EL=9.36 Pk/City Disc center Headwall","COMMENTS":"","WEIR_ELEV":"6.01","BENCHMARKS_2":"Deni 060 Elev=9.39 Chiseled square W end of S hdwl","CARP_GRATE":"Y","INFLATABLE_BAFFLE":"N","NO_OF_RISERS":null,"HT_OF_RISERS":null,"UPSTREAM_BASIN_NUMBER":17,"DOWNSTREAM_BASIN_NUMBER":18,"SILL_ELEV_FT_NGVD":5.96999979,"CREST_LENGTH_FT":24.25,"MIN_CREST_ELEV_FT_NGVD":5.96999979,"MAX_CREST_ELEV_FT_NGVD":5.96999979,"STRUCTURE_TYPE":"Fixed Weir with Carp Grate","DATA_ORIGIN":"AIM","NOTES":"","cgID":"1010","SILL_ELEV_FT_NAVD":4.76999998,"INSTALLED":null,"REPLACED":null,"ADDRESS_NUMBER":null,"JURISDICTION":"","CURRENTINSPECTIONID":"36","CURRENTINSPECTIONDATE":1789430400000,"CURRENTINSPECTIONOCR":"Excellent","CURRENTINSPECTEDBY":"20191127","CURRENTINSPECTIONNOTES":"","CURRENTINSPECTIONOCI":100,"Retired":null,"LINK":null}},{"type":"Feature","id":25,"geometry":{"type":"Point","coordinates":[-81.99105703011264,26.593162880745595]},"properties":{"OBJECTID":25,"ID":33,"ANGLE":-90,"HEIGHT":5.13,"GlobalID":"{21691C53-81A5-496B-82E1-5E13B8D35830}","created_user":null,"created_date":null,"last_edited_user":"cgcartegraphsync","last_edited_date":1788272458000,"CANAL":"BARKENTINE CANAL","LOCATION":"SKYLINE/GLEASON","OBSERVED":1339545600000,"TYPE":"FIXED","DOWN_ELEV":null,"UP_ELEV":null,"WATER_UP":3.96000004,"WATER_DN":3.25999999,"WEIR_CREST":6,"BENCHMARKS":"TBM349-45-01ELEV14.01PK/CITYDISC/concwalk@NWcorBri","COMMENTS":"Water elevs measured 6/13/2012","WEIR_ELEV":"Concrete=4.06 Board=5.13","BENCHMARKS_2":"TBM397-20-01ELEV=7.01PK/City DiscTop/SW @N side","CARP_GRATE":"Y","INFLATABLE_BAFFLE":"N","NO_OF_RISERS":3,"HT_OF_RISERS":"10","UPSTREAM_BASIN_NUMBER":16,"DOWNSTREAM_BASIN_NUMBER":18,"SILL_ELEV_FT_NGVD":4.05000019,"CREST_LENGTH_FT":14.60000038,"MIN_CREST_ELEV_FT_NGVD":5.19000006,"MAX_CREST_ELEV_FT_NGVD":5.19000006,"STRUCTURE_TYPE":"Fixed Weir with Risers","DATA_ORIGIN":"AIM","NOTES":"Top of Seawall 5.84","cgID":"1033","SILL_ELEV_FT_NAVD":2.8499999,"INSTALLED":null,"REPLACED":null,"ADDRESS_NUMBER":null,"JURISDICTION":"","CURRENTINSPECTIONID":"26","CURRENTINSPECTIONDATE":1788220800000,"CURRENTINSPECTIONOCR":"Excellent","CURRENTINSPECTEDBY":"20191127","CURRENTINSPECTIONNOTES":"-Northwest side of weir shows erosion of concrete at bottom of seawall where it connects to carp grate.\n-Northeast side has some graffiti and some erosion of concrete on pillar.","CURRENTINSPECTIONOCI":92.5,"Retired":null,"LINK":null}},{"type":"Feature","id":26,"geometry":{"type":"Point","coordinates":[-81.98994915021193,26.710233907408863]},"properties":{"OBJECTID":26,"ID":9,"ANGLE":-120,"HEIGHT":8.67,"GlobalID":"{FCE57502-9D5C-48B4-9980-9AFDD66AD827}","created_user":null,"created_date":null,"last_edited_user":"cgcartegraphsync","last_edited_date":1789582303000,"CANAL":"GATOR SLOUGH CANAL","LOCATION":"NELSON","OBSERVED":1338854400000,"TYPE":"FIXED","DOWN_ELEV":null,"UP_ELEV":null,"WATER_UP":8.18999958,"WATER_DN":5.78999996,"WEIR_CREST":226.80000305,"BENCHMARKS":"TBM 397-58-01 EL=8.63 PK/CITY DISC SE COR Weir","COMMENTS":"ZIG-ZAG WEIR Maintained 1/31/2014","WEIR_ELEV":"8.67","BENCHMARKS_2":"","CARP_GRATE":"N","INFLATABLE_BAFFLE":"N","NO_OF_RISERS":null,"HT_OF_RISERS":null,"UPSTREAM_BASIN_NUMBER":2,"DOWNSTREAM_BASIN_NUMBER":9,"SILL_ELEV_FT_NGVD":8.5,"CREST_LENGTH_FT":226.80000305,"MIN_CREST_ELEV_FT_NGVD":8.5,"MAX_CREST_ELEV_FT_NGVD":8.5,"STRUCTURE_TYPE":"Fixed Weir","DATA_ORIGIN":"CC","NOTES":"","cgID":"1009","SILL_ELEV_FT_NAVD":7.30000019,"INSTALLED":null,"REPLACED":null,"ADDRESS_NUMBER":null,"JURISDICTION":"","CURRENTINSPECTIONID":"38","CURRENTINSPECTIONDATE":1789516800000,"CURRENTINSPECTIONOCR":"Excellent","CURRENTINSPECTEDBY":"20191127","CURRENTINSPECTIONNOTES":"","CURRENTINSPECTIONOCI":100,"Retired":null,"LINK":null}},{"type":"Feature","id":27,"geometry":{"type":"Point","coordinates":[-82.01580211013088,26.607423997285405]},"properties":{"OBJECTID":27,"ID":22,"ANGLE":180,"HEIGHT":1.95,"GlobalID":"{03F88ABB-9522-49E7-BAB8-2FDF7BD4F409}","created_user":"crobb","created_date":1377903999000,"last_edited_user":"cgcartegraphsync","last_edited_date":1790171038000,"CANAL":"ARMSTRONG CANAL","LOCATION":"VETERANS/SW 20TH AV","OBSERVED":1339545600000,"TYPE":"FIXED","DOWN_ELEV":null,"UP_ELEV":null,"WATER_UP":1.99000001,"WATER_DN":1.51999998,"WEIR_CREST":null,"BENCHMARKS":"TBM397-26-01ELEV=2.98PK/CityDiscTopHW No/VetM&W/Wr","COMMENTS":"Water elevations measured on 6/14/12","WEIR_ELEV":"1.95","BENCHMARKS_2":"TMB97-25-01ELEV=2.85 PK/CityTop/HW S/VMP200' 20AV","CARP_GRATE":"N","INFLATABLE_BAFFLE":"N","NO_OF_RISERS":null,"HT_OF_RISERS":null,"UPSTREAM_BASIN_NUMBER":null,"DOWNSTREAM_BASIN_NUMBER":null,"SILL_ELEV_FT_NGVD":null,"CREST_LENGTH_FT":null,"MIN_CREST_ELEV_FT_NGVD":null,"MAX_CREST_ELEV_FT_NGVD":null,"STRUCTURE_TYPE":"Fixed Weir","DATA_ORIGIN":null,"NOTES":"","cgID":"1022","SILL_ELEV_FT_NAVD":null,"INSTALLED":null,"REPLACED":null,"ADDRESS_NUMBER":null,"JURISDICTION":"","CURRENTINSPECTIONID":"44","CURRENTINSPECTIONDATE":1790121600000,"CURRENTINSPECTIONOCR":"Excellent","CURRENTINSPECTEDBY":"20191127","CURRENTINSPECTIONNOTES":"","CURRENTINSPECTIONOCI":100,"Retired":null,"LINK":null}},{"type":"Feature","id":1227,"geometry":{"type":"Point","coordinates":[-82.01220382372249,26.627824667101578]},"properties":{"OBJECTID":1227,"ID":26,"ANGLE":90,"HEIGHT":3,"GlobalID":"{0E289E0D-2ACB-4340-B529-033A2D093416}","created_user":"crobb","created_date":1380583053000,"last_edited_user":"cgcartegraphsync","last_edited_date":1789623136000,"CANAL":"CARNAVAL CANAL","LOCATION":"1300 SW 18TH AV","OBSERVED":null,"TYPE":"FIXED","DOWN_ELEV":null,"UP_ELEV":null,"WATER_UP":null,"WATER_DN":null,"WEIR_CREST":null,"BENCHMARKS":"CANAL LEVELER PIPES 32X50\"CMP","COMMENTS":"Prev.Weir P = 2 32\"X50\" OUTFALLS","WEIR_ELEV":"2.7","BENCHMARKS_2":"","CARP_GRATE":"Y","INFLATABLE_BAFFLE":"N","NO_OF_RISERS":null,"HT_OF_RISERS":null,"UPSTREAM_BASIN_NUMBER":null,"DOWNSTREAM_BASIN_NUMBER":null,"SILL_ELEV_FT_NGVD":null,"CREST_LENGTH_FT":null,"MIN_CREST_ELEV_FT_NGVD":null,"MAX_CREST_ELEV_FT_NGVD":null,"STRUCTURE_TYPE":"Fixed Weir","DATA_ORIGIN":null,"NOTES":"","cgID":"1026","SILL_ELEV_FT_NAVD":null,"INSTALLED":null,"REPLACED":null,"ADDRESS_NUMBER":null,"JURISDICTION":"","CURRENTINSPECTIONID":"37","CURRENTINSPECTIONDATE":1789516800000,"CURRENTINSPECTIONOCR":"Excellent","CURRENTINSPECTEDBY":"20191127","CURRENTINSPECTIONNOTES":"","CURRENTINSPECTIONOCI":100,"Retired":null,"LINK":null}},{"type":"Feature","id":1627,"geometry":{"type":"Point","coordinates":[-81.94079499863165,26.656656881429054]},"properties":{"OBJECTID":1627,"ID":27,"ANGLE":-90,"HEIGHT":null,"GlobalID":"{85BF3340-DAE3-4244-9ED0-BF4E95E281F4}","created_user":"CROBB","created_date":1406828802000,"last_edited_user":"cgCartegraphAdmin","last_edited_date":1608547803000,"CANAL":"GAINSBOROUGH CANAL","LOCATION":"DelPrado Bl/N Hancok","OBSERVED":null,"TYPE":null,"DOWN_ELEV":null,"UP_ELEV":null,"WATER_UP":null,"WATER_DN":null,"WEIR_CREST":null,"BENCHMARKS":null,"COMMENTS":"Previously F Interconnect 48\" RCP","WEIR_ELEV":"","BENCHMARKS_2":null,"CARP_GRATE":null,"INFLATABLE_BAFFLE":null,"NO_OF_RISERS":null,"HT_OF_RISERS":null,"UPSTREAM_BASIN_NUMBER":12,"DOWNSTREAM_BASIN_NUMBER":14,"SILL_ELEV_FT_NGVD":2.83999991,"CREST_LENGTH_FT":4,"MIN_CREST_ELEV_FT_NGVD":7.98999977,"MAX_CREST_ELEV_FT_NGVD":7.98999977,"STRUCTURE_TYPE":"Culvert","DATA_ORIGIN":"CC","NOTES":"","cgID":"1027","SILL_ELEV_FT_NAVD":1.63999999,"INSTALLED":null,"REPLACED":null,"ADDRESS_NUMBER":null,"JURISDICTION":"","CURRENTINSPECTIONID":"","CURRENTINSPECTIONDATE":null,"CURRENTINSPECTIONOCR":null,"CURRENTINSPECTEDBY":null,"CURRENTINSPECTIONNOTES":null,"CURRENTINSPECTIONOCI":null,"Retired":null,"LINK":null}},{"type":"Feature","id":2427,"geometry":{"type":"Point","coordinates":[-81.9250641634095,26.69908375573966]},"properties":{"OBJECTID":2427,"ID":29,"ANGLE":90,"HEIGHT":null,"GlobalID":"{3078515E-1209-445D-A9F7-77E6B1FF3C46}","created_user":"CROBB","created_date":1415908707000,"last_edited_user":"cgCartegraphAdmin","last_edited_date":1663160321000,"CANAL":"MIDSUMMER CANAL","LOCATION":"NE 28 ST/NE 20 CT","OBSERVED":null,"TYPE":"FIXED","DOWN_ELEV":null,"UP_ELEV":null,"WATER_UP":null,"WATER_DN":null,"WEIR_CREST":null,"BENCHMARKS":"","COMMENTS":"TWO 18\" CULVERT PIPES","WEIR_ELEV":"","BENCHMARKS_2":"","CARP_GRATE":null,"INFLATABLE_BAFFLE":null,"NO_OF_RISERS":null,"HT_OF_RISERS":null,"UPSTREAM_BASIN_NUMBER":3,"DOWNSTREAM_BASIN_NUMBER":0,"SILL_ELEV_FT_NGVD":null,"CREST_LENGTH_FT":null,"MIN_CREST_ELEV_FT_NGVD":null,"MAX_CREST_ELEV_FT_NGVD":null,"STRUCTURE_TYPE":"Fixed Weir","DATA_ORIGIN":"AIM","NOTES":"NGDV PIPE ELEV E & W = 8.2 Future Improvement","cgID":"1029","SILL_ELEV_FT_NAVD":null,"INSTALLED":null,"REPLACED":null,"ADDRESS_NUMBER":null,"JURISDICTION":"","CURRENTINSPECTIONID":"","CURRENTINSPECTIONDATE":null,"CURRENTINSPECTIONOCR":null,"CURRENTINSPECTEDBY":null,"CURRENTINSPECTIONNOTES":null,"CURRENTINSPECTIONOCI":null,"Retired":null,"LINK":null}},{"type":"Feature","id":2428,"geometry":{"type":"Point","coordinates":[-81.9940639571509,26.707685734997888]},"properties":{"OBJECTID":2428,"ID":57,"ANGLE":-200,"HEIGHT":null,"GlobalID":"{F64CA82B-A1E3-4F99-B165-B010527B3FAF}","created_user":"CROBB","created_date":1474928645000,"last_edited_user":"cgcartegraphsync","last_edited_date":1789650714000,"CANAL":"ZANZIBAR CANAL","LOCATION":"WILMINGTON/SLOUGH","OBSERVED":null,"TYPE":"FIXED","DOWN_ELEV":null,"UP_ELEV":null,"WATER_UP":null,"WATER_DN":null,"WEIR_CREST":null,"BENCHMARKS":"","COMMENTS":"","WEIR_ELEV":"2 Culverts w fixed weir","BENCHMARKS_2":"","CARP_GRATE":"N","INFLATABLE_BAFFLE":"N","NO_OF_RISERS":null,"HT_OF_RISERS":null,"UPSTREAM_BASIN_NUMBER":19,"DOWNSTREAM_BASIN_NUMBER":4,"SILL_ELEV_FT_NGVD":7.19999981,"CREST_LENGTH_FT":3.92000008,"MIN_CREST_ELEV_FT_NGVD":7.19999981,"MAX_CREST_ELEV_FT_NGVD":7.19999981,"STRUCTURE_TYPE":"1 Culvert w Fixed Weir, 2 Moveable w Flap Gate","DATA_ORIGIN":"CC","NOTES":"","cgID":"1057","SILL_ELEV_FT_NAVD":6,"INSTALLED":null,"REPLACED":null,"ADDRESS_NUMBER":null,"JURISDICTION":"","CURRENTINSPECTIONID":"39","CURRENTINSPECTIONDATE":1789516800000,"CURRENTINSPECTIONOCR":"Excellent","CURRENTINSPECTEDBY":"20191127","CURRENTINSPECTIONNOTES":"","CURRENTINSPECTIONOCI":100,"Retired":null,"LINK":null}}]}